<?xml version="1.0" encoding="UTF-8"?>
<gpx version="1.1" creator="pull-strava.mjs"
  xmlns="http://www.topografix.com/GPX/1/1"
  xmlns:gpxtpx="http://www.garmin.com/xmlschemas/TrackPointExtension/v1">
  <metadata><name>Evening Run</name><time>2026-07-29T00:25:59.000Z</time></metadata>
  <trk><name>Evening Run</name><type>running</type>
    <trkseg>
      <trkpt lat="40.739322" lon="-73.961683"><ele>13.6</ele><time>2026-07-29T00:25:59.000Z</time></trkpt>
      <trkpt lat="40.73933" lon="-73.961686"><ele>12.6</ele><time>2026-07-29T00:26:00.000Z</time></trkpt>
      <trkpt lat="40.739335" lon="-73.961688"><ele>11.8</ele><time>2026-07-29T00:26:01.000Z</time></trkpt>
      <trkpt lat="40.73934" lon="-73.961691"><ele>11</ele><time>2026-07-29T00:26:02.000Z</time></trkpt>
      <trkpt lat="40.739348" lon="-73.961695"><ele>10.2</ele><time>2026-07-29T00:26:03.000Z</time></trkpt>
      <trkpt lat="40.73936" lon="-73.961697"><ele>9.4</ele><time>2026-07-29T00:26:04.000Z</time></trkpt>
      <trkpt lat="40.739376" lon="-73.961702"><ele>8.8</ele><time>2026-07-29T00:26:05.000Z</time></trkpt>
      <trkpt lat="40.739396" lon="-73.961709"><ele>8.4</ele><time>2026-07-29T00:26:06.000Z</time></trkpt>
      <trkpt lat="40.739418" lon="-73.961717"><ele>8</ele><time>2026-07-29T00:26:07.000Z</time></trkpt>
      <trkpt lat="40.739441" lon="-73.961724"><ele>7.8</ele><time>2026-07-29T00:26:08.000Z</time></trkpt>
      <trkpt lat="40.73946" lon="-73.96173"><ele>7.6</ele><time>2026-07-29T00:26:09.000Z</time></trkpt>
      <trkpt lat="40.739473" lon="-73.961734"><ele>7.4</ele><time>2026-07-29T00:26:10.000Z</time></trkpt>
      <trkpt lat="40.739483" lon="-73.961738"><ele>7.4</ele><time>2026-07-29T00:26:11.000Z</time></trkpt>
      <trkpt lat="40.739497" lon="-73.961744"><ele>7.4</ele><time>2026-07-29T00:26:12.000Z</time></trkpt>
      <trkpt lat="40.739513" lon="-73.961753"><ele>7.2</ele><time>2026-07-29T00:26:13.000Z</time></trkpt>
      <trkpt lat="40.739528" lon="-73.961764"><ele>7.2</ele><time>2026-07-29T00:26:14.000Z</time></trkpt>
      <trkpt lat="40.739543" lon="-73.961777"><ele>7.2</ele><time>2026-07-29T00:26:15.000Z</time></trkpt>
      <trkpt lat="40.739556" lon="-73.961794"><ele>7.2</ele><time>2026-07-29T00:26:16.000Z</time></trkpt>
      <trkpt lat="40.739566" lon="-73.961817"><ele>7.2</ele><time>2026-07-29T00:26:17.000Z</time></trkpt>
      <trkpt lat="40.739572" lon="-73.961844"><ele>7.2</ele><time>2026-07-29T00:26:18.000Z</time></trkpt>
      <trkpt lat="40.739573" lon="-73.961875"><ele>7.2</ele><time>2026-07-29T00:26:19.000Z</time></trkpt>
      <trkpt lat="40.739573" lon="-73.961906"><ele>7.2</ele><time>2026-07-29T00:26:20.000Z</time></trkpt>
      <trkpt lat="40.739571" lon="-73.961939"><ele>7.2</ele><time>2026-07-29T00:26:21.000Z</time></trkpt>
      <trkpt lat="40.739575" lon="-73.961975"><ele>7.2</ele><time>2026-07-29T00:26:22.000Z</time></trkpt>
      <trkpt lat="40.739575" lon="-73.962009"><ele>7.2</ele><time>2026-07-29T00:26:23.000Z</time></trkpt>
      <trkpt lat="40.739572" lon="-73.962036"><ele>7.4</ele><time>2026-07-29T00:26:24.000Z</time></trkpt>
      <trkpt lat="40.739569" lon="-73.962062"><ele>7.4</ele><time>2026-07-29T00:26:25.000Z</time></trkpt>
      <trkpt lat="40.739567" lon="-73.962091"><ele>7.4</ele><time>2026-07-29T00:26:26.000Z</time></trkpt>
      <trkpt lat="40.739564" lon="-73.962121"><ele>7.6</ele><time>2026-07-29T00:26:27.000Z</time></trkpt>
      <trkpt lat="40.739562" lon="-73.962153"><ele>7.6</ele><time>2026-07-29T00:26:28.000Z</time></trkpt>
      <trkpt lat="40.739559" lon="-73.962183"><ele>7.6</ele><time>2026-07-29T00:26:29.000Z</time></trkpt>
      <trkpt lat="40.739557" lon="-73.962214"><ele>7.8</ele><time>2026-07-29T00:26:30.000Z</time></trkpt>
      <trkpt lat="40.739556" lon="-73.962244"><ele>7.8</ele><time>2026-07-29T00:26:31.000Z</time></trkpt>
      <trkpt lat="40.739557" lon="-73.962275"><ele>7.8</ele><time>2026-07-29T00:26:32.000Z</time></trkpt>
      <trkpt lat="40.739562" lon="-73.962304"><ele>8</ele><time>2026-07-29T00:26:33.000Z</time></trkpt>
      <trkpt lat="40.739568" lon="-73.96233"><ele>8</ele><time>2026-07-29T00:26:34.000Z</time></trkpt>
      <trkpt lat="40.739578" lon="-73.962351"><ele>8</ele><time>2026-07-29T00:26:35.000Z</time></trkpt>
      <trkpt lat="40.739589" lon="-73.962364"><ele>8</ele><time>2026-07-29T00:26:36.000Z</time></trkpt>
      <trkpt lat="40.739603" lon="-73.962364"><ele>8</ele><time>2026-07-29T00:26:37.000Z</time></trkpt>
      <trkpt lat="40.739623" lon="-73.962333"><ele>8</ele><time>2026-07-29T00:26:38.000Z</time></trkpt>
      <trkpt lat="40.739631" lon="-73.962304"><ele>8</ele><time>2026-07-29T00:26:39.000Z</time></trkpt>
      <trkpt lat="40.739637" lon="-73.962272"><ele>8</ele><time>2026-07-29T00:26:40.000Z</time></trkpt>
      <trkpt lat="40.739641" lon="-73.962241"><ele>8</ele><time>2026-07-29T00:26:41.000Z</time></trkpt>
      <trkpt lat="40.739642" lon="-73.962212"><ele>8</ele><time>2026-07-29T00:26:42.000Z</time></trkpt>
      <trkpt lat="40.739641" lon="-73.962184"><ele>8</ele><time>2026-07-29T00:26:43.000Z</time></trkpt>
      <trkpt lat="40.739639" lon="-73.962159"><ele>8</ele><time>2026-07-29T00:26:44.000Z</time></trkpt>
      <trkpt lat="40.739638" lon="-73.962134"><ele>8</ele><time>2026-07-29T00:26:45.000Z</time></trkpt>
      <trkpt lat="40.739637" lon="-73.962108"><ele>8</ele><time>2026-07-29T00:26:46.000Z</time></trkpt>
      <trkpt lat="40.739636" lon="-73.962082"><ele>8</ele><time>2026-07-29T00:26:47.000Z</time></trkpt>
      <trkpt lat="40.739635" lon="-73.962056"><ele>8</ele><time>2026-07-29T00:26:48.000Z</time></trkpt>
      <trkpt lat="40.739633" lon="-73.962031"><ele>7.8</ele><time>2026-07-29T00:26:49.000Z</time></trkpt>
      <trkpt lat="40.739633" lon="-73.962005"><ele>7.8</ele><time>2026-07-29T00:26:50.000Z</time></trkpt>
      <trkpt lat="40.739635" lon="-73.961979"><ele>7.8</ele><time>2026-07-29T00:26:51.000Z</time></trkpt>
      <trkpt lat="40.73964" lon="-73.961954"><ele>7.8</ele><time>2026-07-29T00:26:52.000Z</time></trkpt>
      <trkpt lat="40.739649" lon="-73.961928"><ele>7.8</ele><time>2026-07-29T00:26:53.000Z</time></trkpt>
      <trkpt lat="40.739659" lon="-73.961903"><ele>7.6</ele><time>2026-07-29T00:26:54.000Z</time></trkpt>
      <trkpt lat="40.739669" lon="-73.961877"><ele>7.6</ele><time>2026-07-29T00:26:55.000Z</time></trkpt>
      <trkpt lat="40.739681" lon="-73.961853"><ele>7.6</ele><time>2026-07-29T00:26:56.000Z</time></trkpt>
      <trkpt lat="40.739691" lon="-73.961829"><ele>7.4</ele><time>2026-07-29T00:26:57.000Z</time></trkpt>
      <trkpt lat="40.739701" lon="-73.961804"><ele>7.4</ele><time>2026-07-29T00:26:58.000Z</time></trkpt>
      <trkpt lat="40.73971" lon="-73.961779"><ele>7.2</ele><time>2026-07-29T00:26:59.000Z</time></trkpt>
      <trkpt lat="40.73972" lon="-73.961754"><ele>7.2</ele><time>2026-07-29T00:27:00.000Z</time></trkpt>
      <trkpt lat="40.739729" lon="-73.961731"><ele>7.2</ele><time>2026-07-29T00:27:01.000Z</time></trkpt>
      <trkpt lat="40.739739" lon="-73.961709"><ele>7.2</ele><time>2026-07-29T00:27:02.000Z</time></trkpt>
      <trkpt lat="40.73975" lon="-73.961688"><ele>7</ele><time>2026-07-29T00:27:03.000Z</time></trkpt>
      <trkpt lat="40.739761" lon="-73.961667"><ele>7</ele><time>2026-07-29T00:27:04.000Z</time></trkpt>
      <trkpt lat="40.739771" lon="-73.961647"><ele>7</ele><time>2026-07-29T00:27:05.000Z</time></trkpt>
      <trkpt lat="40.739782" lon="-73.961627"><ele>7</ele><time>2026-07-29T00:27:06.000Z</time></trkpt>
      <trkpt lat="40.739794" lon="-73.961608"><ele>6.8</ele><time>2026-07-29T00:27:07.000Z</time></trkpt>
      <trkpt lat="40.739808" lon="-73.961588"><ele>6.8</ele><time>2026-07-29T00:27:08.000Z</time></trkpt>
      <trkpt lat="40.739822" lon="-73.961569"><ele>6.8</ele><time>2026-07-29T00:27:09.000Z</time></trkpt>
      <trkpt lat="40.739835" lon="-73.96155"><ele>6.6</ele><time>2026-07-29T00:27:10.000Z</time></trkpt>
      <trkpt lat="40.739846" lon="-73.96153"><ele>6.6</ele><time>2026-07-29T00:27:11.000Z</time></trkpt>
      <trkpt lat="40.739856" lon="-73.96151"><ele>6.6</ele><time>2026-07-29T00:27:12.000Z</time></trkpt>
      <trkpt lat="40.739867" lon="-73.961488"><ele>6.4</ele><time>2026-07-29T00:27:13.000Z</time></trkpt>
      <trkpt lat="40.739881" lon="-73.961467"><ele>6.4</ele><time>2026-07-29T00:27:14.000Z</time></trkpt>
      <trkpt lat="40.739897" lon="-73.961446"><ele>6.4</ele><time>2026-07-29T00:27:15.000Z</time></trkpt>
      <trkpt lat="40.739914" lon="-73.961426"><ele>6.2</ele><time>2026-07-29T00:27:16.000Z</time></trkpt>
      <trkpt lat="40.739932" lon="-73.961408"><ele>6.2</ele><time>2026-07-29T00:27:17.000Z</time></trkpt>
      <trkpt lat="40.73995" lon="-73.961391"><ele>6.2</ele><time>2026-07-29T00:27:18.000Z</time></trkpt>
      <trkpt lat="40.739966" lon="-73.961375"><ele>6.2</ele><time>2026-07-29T00:27:19.000Z</time></trkpt>
      <trkpt lat="40.739984" lon="-73.961361"><ele>6.2</ele><time>2026-07-29T00:27:20.000Z</time></trkpt>
      <trkpt lat="40.740001" lon="-73.961349"><ele>6</ele><time>2026-07-29T00:27:21.000Z</time></trkpt>
      <trkpt lat="40.740019" lon="-73.961338"><ele>6</ele><time>2026-07-29T00:27:22.000Z</time></trkpt>
      <trkpt lat="40.740037" lon="-73.961326"><ele>6</ele><time>2026-07-29T00:27:23.000Z</time></trkpt>
      <trkpt lat="40.740054" lon="-73.961312"><ele>5.8</ele><time>2026-07-29T00:27:24.000Z</time></trkpt>
      <trkpt lat="40.740073" lon="-73.961299"><ele>5.8</ele><time>2026-07-29T00:27:25.000Z</time></trkpt>
      <trkpt lat="40.740092" lon="-73.961286"><ele>5.8</ele><time>2026-07-29T00:27:26.000Z</time></trkpt>
      <trkpt lat="40.740111" lon="-73.961274"><ele>5.6</ele><time>2026-07-29T00:27:27.000Z</time></trkpt>
      <trkpt lat="40.740132" lon="-73.961263"><ele>5.6</ele><time>2026-07-29T00:27:28.000Z</time></trkpt>
      <trkpt lat="40.740152" lon="-73.961253"><ele>5.4</ele><time>2026-07-29T00:27:29.000Z</time></trkpt>
      <trkpt lat="40.74017" lon="-73.961244"><ele>5.4</ele><time>2026-07-29T00:27:30.000Z</time></trkpt>
      <trkpt lat="40.740186" lon="-73.961235"><ele>5.4</ele><time>2026-07-29T00:27:31.000Z</time></trkpt>
      <trkpt lat="40.7402" lon="-73.961228"><ele>5.2</ele><time>2026-07-29T00:27:32.000Z</time></trkpt>
      <trkpt lat="40.740213" lon="-73.961224"><ele>5.2</ele><time>2026-07-29T00:27:33.000Z</time></trkpt>
      <trkpt lat="40.740222" lon="-73.961222"><ele>5.2</ele><time>2026-07-29T00:27:34.000Z</time></trkpt>
      <trkpt lat="40.740226" lon="-73.961224"><ele>5.2</ele><time>2026-07-29T00:27:35.000Z</time></trkpt>
      <trkpt lat="40.740222" lon="-73.96123"><ele>5.2</ele><time>2026-07-29T00:27:36.000Z</time></trkpt>
      <trkpt lat="40.74021" lon="-73.961239"><ele>5.2</ele><time>2026-07-29T00:27:37.000Z</time></trkpt>
      <trkpt lat="40.740193" lon="-73.961252"><ele>5.2</ele><time>2026-07-29T00:27:38.000Z</time></trkpt>
      <trkpt lat="40.740174" lon="-73.961266"><ele>5</ele><time>2026-07-29T00:27:39.000Z</time></trkpt>
      <trkpt lat="40.740154" lon="-73.961281"><ele>5</ele><time>2026-07-29T00:27:40.000Z</time></trkpt>
      <trkpt lat="40.740136" lon="-73.961298"><ele>5</ele><time>2026-07-29T00:27:41.000Z</time></trkpt>
      <trkpt lat="40.74012" lon="-73.961316"><ele>5</ele><time>2026-07-29T00:27:42.000Z</time></trkpt>
      <trkpt lat="40.740106" lon="-73.961336"><ele>5</ele><time>2026-07-29T00:27:43.000Z</time></trkpt>
      <trkpt lat="40.740093" lon="-73.961357"><ele>4.8</ele><time>2026-07-29T00:27:44.000Z</time></trkpt>
      <trkpt lat="40.74008" lon="-73.961379"><ele>4.8</ele><time>2026-07-29T00:27:45.000Z</time></trkpt>
      <trkpt lat="40.740068" lon="-73.9614"><ele>4.8</ele><time>2026-07-29T00:27:46.000Z</time></trkpt>
      <trkpt lat="40.740055" lon="-73.96142"><ele>4.6</ele><time>2026-07-29T00:27:47.000Z</time></trkpt>
      <trkpt lat="40.740042" lon="-73.96144"><ele>4.4</ele><time>2026-07-29T00:27:48.000Z</time></trkpt>
      <trkpt lat="40.740029" lon="-73.96146"><ele>4.4</ele><time>2026-07-29T00:27:49.000Z</time></trkpt>
      <trkpt lat="40.740017" lon="-73.961481"><ele>4.2</ele><time>2026-07-29T00:27:50.000Z</time></trkpt>
      <trkpt lat="40.740005" lon="-73.961502"><ele>4.2</ele><time>2026-07-29T00:27:51.000Z</time></trkpt>
      <trkpt lat="40.739993" lon="-73.961523"><ele>4</ele><time>2026-07-29T00:27:52.000Z</time></trkpt>
      <trkpt lat="40.739983" lon="-73.961542"><ele>4</ele><time>2026-07-29T00:27:53.000Z</time></trkpt>
      <trkpt lat="40.739974" lon="-73.961559"><ele>3.8</ele><time>2026-07-29T00:27:54.000Z</time></trkpt>
      <trkpt lat="40.739966" lon="-73.961573"><ele>3.6</ele><time>2026-07-29T00:27:55.000Z</time></trkpt>
      <trkpt lat="40.739961" lon="-73.961582"><ele>3.6</ele><time>2026-07-29T00:27:56.000Z</time></trkpt>
      <trkpt lat="40.739958" lon="-73.961585"><ele>3.6</ele><time>2026-07-29T00:27:57.000Z</time></trkpt>
      <trkpt lat="40.739957" lon="-73.961585"><ele>3.4</ele><time>2026-07-29T00:27:58.000Z</time></trkpt>
      <trkpt lat="40.739941" lon="-73.961653"><ele>3</ele><time>2026-07-29T00:28:04.000Z</time></trkpt>
      <trkpt lat="40.73994" lon="-73.961676"><ele>3</ele><time>2026-07-29T00:28:05.000Z</time></trkpt>
      <trkpt lat="40.739941" lon="-73.961698"><ele>3</ele><time>2026-07-29T00:28:06.000Z</time></trkpt>
      <trkpt lat="40.739941" lon="-73.961716"><ele>3</ele><time>2026-07-29T00:28:07.000Z</time></trkpt>
      <trkpt lat="40.73994" lon="-73.961733"><ele>2.8</ele><time>2026-07-29T00:28:08.000Z</time></trkpt>
      <trkpt lat="40.739937" lon="-73.961752"><ele>2.8</ele><time>2026-07-29T00:28:09.000Z</time></trkpt>
      <trkpt lat="40.739933" lon="-73.961776"><ele>2.8</ele><time>2026-07-29T00:28:10.000Z</time></trkpt>
      <trkpt lat="40.739931" lon="-73.961803"><ele>2.8</ele><time>2026-07-29T00:28:11.000Z</time></trkpt>
      <trkpt lat="40.739932" lon="-73.96183"><ele>2.8</ele><time>2026-07-29T00:28:12.000Z</time></trkpt>
      <trkpt lat="40.739936" lon="-73.961855"><ele>2.8</ele><time>2026-07-29T00:28:13.000Z</time></trkpt>
      <trkpt lat="40.739939" lon="-73.961879"><ele>2.8</ele><time>2026-07-29T00:28:14.000Z</time></trkpt>
      <trkpt lat="40.739939" lon="-73.961904"><ele>2.8</ele><time>2026-07-29T00:28:15.000Z</time></trkpt>
      <trkpt lat="40.739937" lon="-73.96193"><ele>2.8</ele><time>2026-07-29T00:28:16.000Z</time></trkpt>
      <trkpt lat="40.739934" lon="-73.961957"><ele>2.8</ele><time>2026-07-29T00:28:17.000Z</time></trkpt>
      <trkpt lat="40.739934" lon="-73.961983"><ele>2.8</ele><time>2026-07-29T00:28:18.000Z</time></trkpt>
      <trkpt lat="40.739938" lon="-73.962009"><ele>2.8</ele><time>2026-07-29T00:28:19.000Z</time></trkpt>
      <trkpt lat="40.739945" lon="-73.962033"><ele>2.8</ele><time>2026-07-29T00:28:20.000Z</time></trkpt>
      <trkpt lat="40.739949" lon="-73.962058"><ele>2.8</ele><time>2026-07-29T00:28:21.000Z</time></trkpt>
      <trkpt lat="40.739948" lon="-73.962082"><ele>2.8</ele><time>2026-07-29T00:28:22.000Z</time></trkpt>
      <trkpt lat="40.739943" lon="-73.962108"><ele>2.8</ele><time>2026-07-29T00:28:23.000Z</time></trkpt>
      <trkpt lat="40.739938" lon="-73.962132"><ele>2.8</ele><time>2026-07-29T00:28:24.000Z</time></trkpt>
      <trkpt lat="40.739932" lon="-73.962152"><ele>2.8</ele><time>2026-07-29T00:28:25.000Z</time></trkpt>
      <trkpt lat="40.739924" lon="-73.962168"><ele>2.8</ele><time>2026-07-29T00:28:26.000Z</time></trkpt>
      <trkpt lat="40.73991" lon="-73.96218"><ele>2.8</ele><time>2026-07-29T00:28:27.000Z</time></trkpt>
      <trkpt lat="40.739891" lon="-73.96219"><ele>3</ele><time>2026-07-29T00:28:28.000Z</time></trkpt>
      <trkpt lat="40.739871" lon="-73.962199"><ele>3</ele><time>2026-07-29T00:28:29.000Z</time></trkpt>
      <trkpt lat="40.739854" lon="-73.962211"><ele>3</ele><time>2026-07-29T00:28:30.000Z</time></trkpt>
      <trkpt lat="40.739842" lon="-73.962228"><ele>3</ele><time>2026-07-29T00:28:31.000Z</time></trkpt>
      <trkpt lat="40.739833" lon="-73.96225"><ele>3</ele><time>2026-07-29T00:28:32.000Z</time></trkpt>
      <trkpt lat="40.739826" lon="-73.962274"><ele>3</ele><time>2026-07-29T00:28:33.000Z</time></trkpt>
      <trkpt lat="40.739817" lon="-73.962296"><ele>3</ele><time>2026-07-29T00:28:34.000Z</time></trkpt>
      <trkpt lat="40.739805" lon="-73.962314"><ele>3.2</ele><time>2026-07-29T00:28:35.000Z</time></trkpt>
      <trkpt lat="40.73979" lon="-73.962328"><ele>3.2</ele><time>2026-07-29T00:28:36.000Z</time></trkpt>
      <trkpt lat="40.739772" lon="-73.962338"><ele>3.2</ele><time>2026-07-29T00:28:37.000Z</time></trkpt>
      <trkpt lat="40.739754" lon="-73.962346"><ele>3.2</ele><time>2026-07-29T00:28:38.000Z</time></trkpt>
      <trkpt lat="40.739737" lon="-73.962354"><ele>3.2</ele><time>2026-07-29T00:28:39.000Z</time></trkpt>
      <trkpt lat="40.739723" lon="-73.962365"><ele>3.2</ele><time>2026-07-29T00:28:40.000Z</time></trkpt>
      <trkpt lat="40.739713" lon="-73.962381"><ele>3.2</ele><time>2026-07-29T00:28:41.000Z</time></trkpt>
      <trkpt lat="40.739708" lon="-73.9624"><ele>3.2</ele><time>2026-07-29T00:28:42.000Z</time></trkpt>
      <trkpt lat="40.739704" lon="-73.962417"><ele>3.2</ele><time>2026-07-29T00:28:43.000Z</time></trkpt>
      <trkpt lat="40.739694" lon="-73.962427"><ele>3.2</ele><time>2026-07-29T00:28:44.000Z</time></trkpt>
      <trkpt lat="40.739675" lon="-73.962432"><ele>3.2</ele><time>2026-07-29T00:28:45.000Z</time></trkpt>
      <trkpt lat="40.73965" lon="-73.962435"><ele>3.2</ele><time>2026-07-29T00:28:46.000Z</time></trkpt>
      <trkpt lat="40.739626" lon="-73.962439"><ele>3</ele><time>2026-07-29T00:28:47.000Z</time></trkpt>
      <trkpt lat="40.739605" lon="-73.962442"><ele>3</ele><time>2026-07-29T00:28:48.000Z</time></trkpt>
      <trkpt lat="40.739585" lon="-73.962444"><ele>3</ele><time>2026-07-29T00:28:49.000Z</time></trkpt>
      <trkpt lat="40.739565" lon="-73.962444"><ele>3</ele><time>2026-07-29T00:28:50.000Z</time></trkpt>
      <trkpt lat="40.739545" lon="-73.962441"><ele>3</ele><time>2026-07-29T00:28:51.000Z</time></trkpt>
      <trkpt lat="40.739525" lon="-73.962436"><ele>3</ele><time>2026-07-29T00:28:52.000Z</time></trkpt>
      <trkpt lat="40.739505" lon="-73.96243"><ele>3</ele><time>2026-07-29T00:28:53.000Z</time></trkpt>
      <trkpt lat="40.739484" lon="-73.962428"><ele>3</ele><time>2026-07-29T00:28:54.000Z</time></trkpt>
      <trkpt lat="40.739462" lon="-73.962429"><ele>3</ele><time>2026-07-29T00:28:55.000Z</time></trkpt>
      <trkpt lat="40.73944" lon="-73.962434"><ele>3</ele><time>2026-07-29T00:28:56.000Z</time></trkpt>
      <trkpt lat="40.739419" lon="-73.962439"><ele>3</ele><time>2026-07-29T00:28:57.000Z</time></trkpt>
      <trkpt lat="40.739398" lon="-73.962443"><ele>3</ele><time>2026-07-29T00:28:58.000Z</time></trkpt>
      <trkpt lat="40.739376" lon="-73.962446"><ele>3</ele><time>2026-07-29T00:28:59.000Z</time></trkpt>
      <trkpt lat="40.739353" lon="-73.962446"><ele>3</ele><time>2026-07-29T00:29:00.000Z</time></trkpt>
      <trkpt lat="40.73933" lon="-73.962445"><ele>3</ele><time>2026-07-29T00:29:01.000Z</time></trkpt>
      <trkpt lat="40.73933" lon="-73.962445"><ele>3</ele><time>2026-07-29T00:29:02.000Z</time></trkpt>
      <trkpt lat="40.739307" lon="-73.962443"><ele>3</ele><time>2026-07-29T00:29:03.000Z</time></trkpt>
      <trkpt lat="40.739284" lon="-73.962444"><ele>3</ele><time>2026-07-29T00:29:04.000Z</time></trkpt>
      <trkpt lat="40.739261" lon="-73.962449"><ele>3</ele><time>2026-07-29T00:29:05.000Z</time></trkpt>
      <trkpt lat="40.739241" lon="-73.962459"><ele>3.2</ele><time>2026-07-29T00:29:06.000Z</time></trkpt>
      <trkpt lat="40.739221" lon="-73.962471"><ele>3.2</ele><time>2026-07-29T00:29:07.000Z</time></trkpt>
      <trkpt lat="40.739202" lon="-73.962484"><ele>3.2</ele><time>2026-07-29T00:29:08.000Z</time></trkpt>
      <trkpt lat="40.739183" lon="-73.962497"><ele>3.2</ele><time>2026-07-29T00:29:09.000Z</time></trkpt>
      <trkpt lat="40.739163" lon="-73.962507"><ele>3.2</ele><time>2026-07-29T00:29:10.000Z</time></trkpt>
      <trkpt lat="40.739142" lon="-73.962514"><ele>3.2</ele><time>2026-07-29T00:29:11.000Z</time></trkpt>
      <trkpt lat="40.73912" lon="-73.96252"><ele>3.2</ele><time>2026-07-29T00:29:12.000Z</time></trkpt>
      <trkpt lat="40.739099" lon="-73.962528"><ele>3.2</ele><time>2026-07-29T00:29:13.000Z</time></trkpt>
      <trkpt lat="40.73908" lon="-73.96254"><ele>3.2</ele><time>2026-07-29T00:29:14.000Z</time></trkpt>
      <trkpt lat="40.739062" lon="-73.962552"><ele>3.2</ele><time>2026-07-29T00:29:15.000Z</time></trkpt>
      <trkpt lat="40.739043" lon="-73.962562"><ele>3.2</ele><time>2026-07-29T00:29:16.000Z</time></trkpt>
      <trkpt lat="40.739023" lon="-73.962569"><ele>3.2</ele><time>2026-07-29T00:29:17.000Z</time></trkpt>
      <trkpt lat="40.739002" lon="-73.962572"><ele>3.2</ele><time>2026-07-29T00:29:18.000Z</time></trkpt>
      <trkpt lat="40.738981" lon="-73.962575"><ele>3.2</ele><time>2026-07-29T00:29:19.000Z</time></trkpt>
      <trkpt lat="40.738959" lon="-73.962578"><ele>3.2</ele><time>2026-07-29T00:29:20.000Z</time></trkpt>
      <trkpt lat="40.738937" lon="-73.962581"><ele>3.2</ele><time>2026-07-29T00:29:21.000Z</time></trkpt>
      <trkpt lat="40.738916" lon="-73.962583"><ele>3.2</ele><time>2026-07-29T00:29:22.000Z</time></trkpt>
      <trkpt lat="40.738894" lon="-73.962583"><ele>3.4</ele><time>2026-07-29T00:29:23.000Z</time></trkpt>
      <trkpt lat="40.738872" lon="-73.962582"><ele>3.4</ele><time>2026-07-29T00:29:24.000Z</time></trkpt>
      <trkpt lat="40.738851" lon="-73.962581"><ele>3.4</ele><time>2026-07-29T00:29:25.000Z</time></trkpt>
      <trkpt lat="40.738831" lon="-73.962582"><ele>3.4</ele><time>2026-07-29T00:29:26.000Z</time></trkpt>
      <trkpt lat="40.738814" lon="-73.962583"><ele>3.4</ele><time>2026-07-29T00:29:27.000Z</time></trkpt>
      <trkpt lat="40.738798" lon="-73.962582"><ele>3.4</ele><time>2026-07-29T00:29:28.000Z</time></trkpt>
      <trkpt lat="40.738781" lon="-73.962577"><ele>3.4</ele><time>2026-07-29T00:29:29.000Z</time></trkpt>
      <trkpt lat="40.738762" lon="-73.962571"><ele>3.2</ele><time>2026-07-29T00:29:30.000Z</time></trkpt>
      <trkpt lat="40.73874" lon="-73.962567"><ele>3.2</ele><time>2026-07-29T00:29:31.000Z</time></trkpt>
      <trkpt lat="40.738718" lon="-73.962569"><ele>3.2</ele><time>2026-07-29T00:29:32.000Z</time></trkpt>
      <trkpt lat="40.738699" lon="-73.962571"><ele>3.2</ele><time>2026-07-29T00:29:33.000Z</time></trkpt>
      <trkpt lat="40.738684" lon="-73.962569"><ele>3.2</ele><time>2026-07-29T00:29:34.000Z</time></trkpt>
      <trkpt lat="40.73867" lon="-73.962559"><ele>3.2</ele><time>2026-07-29T00:29:35.000Z</time></trkpt>
      <trkpt lat="40.738658" lon="-73.962541"><ele>3.2</ele><time>2026-07-29T00:29:36.000Z</time></trkpt>
      <trkpt lat="40.738648" lon="-73.962517"><ele>3.2</ele><time>2026-07-29T00:29:37.000Z</time></trkpt>
      <trkpt lat="40.73864" lon="-73.962491"><ele>3.2</ele><time>2026-07-29T00:29:38.000Z</time></trkpt>
      <trkpt lat="40.738632" lon="-73.962465"><ele>3.2</ele><time>2026-07-29T00:29:39.000Z</time></trkpt>
      <trkpt lat="40.738623" lon="-73.96244"><ele>3.2</ele><time>2026-07-29T00:29:40.000Z</time></trkpt>
      <trkpt lat="40.738614" lon="-73.962416"><ele>3.2</ele><time>2026-07-29T00:29:41.000Z</time></trkpt>
      <trkpt lat="40.738605" lon="-73.962392"><ele>3.2</ele><time>2026-07-29T00:29:42.000Z</time></trkpt>
      <trkpt lat="40.738597" lon="-73.962368"><ele>3.2</ele><time>2026-07-29T00:29:43.000Z</time></trkpt>
      <trkpt lat="40.73859" lon="-73.962342"><ele>3.2</ele><time>2026-07-29T00:29:44.000Z</time></trkpt>
      <trkpt lat="40.738584" lon="-73.962316"><ele>3.2</ele><time>2026-07-29T00:29:45.000Z</time></trkpt>
      <trkpt lat="40.738576" lon="-73.96229"><ele>3.2</ele><time>2026-07-29T00:29:46.000Z</time></trkpt>
      <trkpt lat="40.738567" lon="-73.962267"><ele>3.2</ele><time>2026-07-29T00:29:47.000Z</time></trkpt>
      <trkpt lat="40.738554" lon="-73.962249"><ele>3.2</ele><time>2026-07-29T00:29:48.000Z</time></trkpt>
      <trkpt lat="40.738541" lon="-73.962233"><ele>3.2</ele><time>2026-07-29T00:29:49.000Z</time></trkpt>
      <trkpt lat="40.738528" lon="-73.962215"><ele>3.2</ele><time>2026-07-29T00:29:50.000Z</time></trkpt>
      <trkpt lat="40.738518" lon="-73.962194"><ele>3.2</ele><time>2026-07-29T00:29:51.000Z</time></trkpt>
      <trkpt lat="40.73851" lon="-73.96217"><ele>3.2</ele><time>2026-07-29T00:29:52.000Z</time></trkpt>
      <trkpt lat="40.738499" lon="-73.962148"><ele>3.2</ele><time>2026-07-29T00:29:53.000Z</time></trkpt>
      <trkpt lat="40.738485" lon="-73.962129"><ele>3.2</ele><time>2026-07-29T00:29:54.000Z</time></trkpt>
      <trkpt lat="40.738468" lon="-73.962113"><ele>3.2</ele><time>2026-07-29T00:29:55.000Z</time></trkpt>
      <trkpt lat="40.738451" lon="-73.962097"><ele>3.2</ele><time>2026-07-29T00:29:56.000Z</time></trkpt>
      <trkpt lat="40.738435" lon="-73.962081"><ele>3.2</ele><time>2026-07-29T00:29:57.000Z</time></trkpt>
      <trkpt lat="40.73842" lon="-73.962065"><ele>3.4</ele><time>2026-07-29T00:29:58.000Z</time></trkpt>
      <trkpt lat="40.738406" lon="-73.96205"><ele>3.4</ele><time>2026-07-29T00:29:59.000Z</time></trkpt>
      <trkpt lat="40.738391" lon="-73.962033"><ele>3.4</ele><time>2026-07-29T00:30:00.000Z</time></trkpt>
      <trkpt lat="40.738378" lon="-73.962014"><ele>3.4</ele><time>2026-07-29T00:30:01.000Z</time></trkpt>
      <trkpt lat="40.738368" lon="-73.961994"><ele>3.4</ele><time>2026-07-29T00:30:02.000Z</time></trkpt>
      <trkpt lat="40.738362" lon="-73.96197"><ele>3.4</ele><time>2026-07-29T00:30:03.000Z</time></trkpt>
      <trkpt lat="40.738359" lon="-73.961944"><ele>3.4</ele><time>2026-07-29T00:30:04.000Z</time></trkpt>
      <trkpt lat="40.73836" lon="-73.961916"><ele>3.4</ele><time>2026-07-29T00:30:05.000Z</time></trkpt>
      <trkpt lat="40.738362" lon="-73.961888"><ele>3.2</ele><time>2026-07-29T00:30:06.000Z</time></trkpt>
      <trkpt lat="40.738362" lon="-73.961859"><ele>3.2</ele><time>2026-07-29T00:30:07.000Z</time></trkpt>
      <trkpt lat="40.738358" lon="-73.961831"><ele>3.2</ele><time>2026-07-29T00:30:08.000Z</time></trkpt>
      <trkpt lat="40.73835" lon="-73.961805"><ele>3.2</ele><time>2026-07-29T00:30:09.000Z</time></trkpt>
      <trkpt lat="40.738339" lon="-73.961782"><ele>3.2</ele><time>2026-07-29T00:30:10.000Z</time></trkpt>
      <trkpt lat="40.738326" lon="-73.961761"><ele>3</ele><time>2026-07-29T00:30:11.000Z</time></trkpt>
      <trkpt lat="40.738315" lon="-73.961738"><ele>3</ele><time>2026-07-29T00:30:12.000Z</time></trkpt>
      <trkpt lat="40.73831" lon="-73.961713"><ele>3</ele><time>2026-07-29T00:30:13.000Z</time></trkpt>
      <trkpt lat="40.738308" lon="-73.961685"><ele>3</ele><time>2026-07-29T00:30:14.000Z</time></trkpt>
      <trkpt lat="40.73831" lon="-73.961656"><ele>3</ele><time>2026-07-29T00:30:15.000Z</time></trkpt>
      <trkpt lat="40.738311" lon="-73.961628"><ele>3</ele><time>2026-07-29T00:30:16.000Z</time></trkpt>
      <trkpt lat="40.73831" lon="-73.961601"><ele>3</ele><time>2026-07-29T00:30:17.000Z</time></trkpt>
      <trkpt lat="40.738306" lon="-73.961574"><ele>3</ele><time>2026-07-29T00:30:18.000Z</time></trkpt>
      <trkpt lat="40.738299" lon="-73.961548"><ele>3</ele><time>2026-07-29T00:30:19.000Z</time></trkpt>
      <trkpt lat="40.738294" lon="-73.961522"><ele>3</ele><time>2026-07-29T00:30:20.000Z</time></trkpt>
      <trkpt lat="40.73829" lon="-73.961496"><ele>3</ele><time>2026-07-29T00:30:21.000Z</time></trkpt>
      <trkpt lat="40.738288" lon="-73.961468"><ele>3</ele><time>2026-07-29T00:30:22.000Z</time></trkpt>
      <trkpt lat="40.738287" lon="-73.96144"><ele>3</ele><time>2026-07-29T00:30:23.000Z</time></trkpt>
      <trkpt lat="40.738286" lon="-73.96141"><ele>3</ele><time>2026-07-29T00:30:24.000Z</time></trkpt>
      <trkpt lat="40.738284" lon="-73.961381"><ele>3</ele><time>2026-07-29T00:30:25.000Z</time></trkpt>
      <trkpt lat="40.738282" lon="-73.961353"><ele>3</ele><time>2026-07-29T00:30:26.000Z</time></trkpt>
      <trkpt lat="40.738279" lon="-73.961324"><ele>3</ele><time>2026-07-29T00:30:27.000Z</time></trkpt>
      <trkpt lat="40.738275" lon="-73.961296"><ele>3</ele><time>2026-07-29T00:30:28.000Z</time></trkpt>
      <trkpt lat="40.738271" lon="-73.961269"><ele>3</ele><time>2026-07-29T00:30:29.000Z</time></trkpt>
      <trkpt lat="40.738267" lon="-73.961241"><ele>3</ele><time>2026-07-29T00:30:30.000Z</time></trkpt>
      <trkpt lat="40.738262" lon="-73.961214"><ele>3</ele><time>2026-07-29T00:30:31.000Z</time></trkpt>
      <trkpt lat="40.738258" lon="-73.961187"><ele>3</ele><time>2026-07-29T00:30:32.000Z</time></trkpt>
      <trkpt lat="40.738255" lon="-73.96116"><ele>3</ele><time>2026-07-29T00:30:33.000Z</time></trkpt>
      <trkpt lat="40.738252" lon="-73.961133"><ele>3</ele><time>2026-07-29T00:30:34.000Z</time></trkpt>
      <trkpt lat="40.738249" lon="-73.961104"><ele>3</ele><time>2026-07-29T00:30:35.000Z</time></trkpt>
      <trkpt lat="40.738247" lon="-73.961073"><ele>3</ele><time>2026-07-29T00:30:36.000Z</time></trkpt>
      <trkpt lat="40.738245" lon="-73.961041"><ele>3</ele><time>2026-07-29T00:30:37.000Z</time></trkpt>
      <trkpt lat="40.738244" lon="-73.961008"><ele>3</ele><time>2026-07-29T00:30:38.000Z</time></trkpt>
      <trkpt lat="40.738243" lon="-73.960976"><ele>3</ele><time>2026-07-29T00:30:39.000Z</time></trkpt>
      <trkpt lat="40.738242" lon="-73.960943"><ele>3</ele><time>2026-07-29T00:30:40.000Z</time></trkpt>
      <trkpt lat="40.738242" lon="-73.960912"><ele>3</ele><time>2026-07-29T00:30:41.000Z</time></trkpt>
      <trkpt lat="40.738243" lon="-73.960883"><ele>3</ele><time>2026-07-29T00:30:42.000Z</time></trkpt>
      <trkpt lat="40.738244" lon="-73.960855"><ele>3</ele><time>2026-07-29T00:30:43.000Z</time></trkpt>
      <trkpt lat="40.738246" lon="-73.960827"><ele>3</ele><time>2026-07-29T00:30:44.000Z</time></trkpt>
      <trkpt lat="40.738249" lon="-73.960798"><ele>3</ele><time>2026-07-29T00:30:45.000Z</time></trkpt>
      <trkpt lat="40.738253" lon="-73.960768"><ele>3</ele><time>2026-07-29T00:30:46.000Z</time></trkpt>
      <trkpt lat="40.738258" lon="-73.960738"><ele>3</ele><time>2026-07-29T00:30:47.000Z</time></trkpt>
      <trkpt lat="40.738264" lon="-73.96071"><ele>3</ele><time>2026-07-29T00:30:48.000Z</time></trkpt>
      <trkpt lat="40.738271" lon="-73.960683"><ele>3</ele><time>2026-07-29T00:30:49.000Z</time></trkpt>
      <trkpt lat="40.73828" lon="-73.960657"><ele>3</ele><time>2026-07-29T00:30:50.000Z</time></trkpt>
      <trkpt lat="40.73829" lon="-73.960632"><ele>3</ele><time>2026-07-29T00:30:51.000Z</time></trkpt>
      <trkpt lat="40.7383" lon="-73.960609"><ele>3.2</ele><time>2026-07-29T00:30:52.000Z</time></trkpt>
      <trkpt lat="40.738311" lon="-73.960586"><ele>3.2</ele><time>2026-07-29T00:30:53.000Z</time></trkpt>
      <trkpt lat="40.738323" lon="-73.960564"><ele>3.2</ele><time>2026-07-29T00:30:54.000Z</time></trkpt>
      <trkpt lat="40.738335" lon="-73.960542"><ele>3.2</ele><time>2026-07-29T00:30:55.000Z</time></trkpt>
      <trkpt lat="40.738347" lon="-73.960522"><ele>3.2</ele><time>2026-07-29T00:30:56.000Z</time></trkpt>
      <trkpt lat="40.738359" lon="-73.960502"><ele>3.2</ele><time>2026-07-29T00:30:57.000Z</time></trkpt>
      <trkpt lat="40.738372" lon="-73.960482"><ele>3.4</ele><time>2026-07-29T00:30:58.000Z</time></trkpt>
      <trkpt lat="40.738386" lon="-73.960461"><ele>3.4</ele><time>2026-07-29T00:30:59.000Z</time></trkpt>
      <trkpt lat="40.7384" lon="-73.960441"><ele>3.4</ele><time>2026-07-29T00:31:00.000Z</time></trkpt>
      <trkpt lat="40.738414" lon="-73.96042"><ele>3.4</ele><time>2026-07-29T00:31:01.000Z</time></trkpt>
      <trkpt lat="40.738429" lon="-73.960401"><ele>3.4</ele><time>2026-07-29T00:31:02.000Z</time></trkpt>
      <trkpt lat="40.738444" lon="-73.960383"><ele>3.4</ele><time>2026-07-29T00:31:03.000Z</time></trkpt>
      <trkpt lat="40.73846" lon="-73.960366"><ele>3.6</ele><time>2026-07-29T00:31:04.000Z</time></trkpt>
      <trkpt lat="40.738477" lon="-73.960349"><ele>3.6</ele><time>2026-07-29T00:31:05.000Z</time></trkpt>
      <trkpt lat="40.738494" lon="-73.960333"><ele>3.6</ele><time>2026-07-29T00:31:06.000Z</time></trkpt>
      <trkpt lat="40.73851" lon="-73.960317"><ele>3.6</ele><time>2026-07-29T00:31:07.000Z</time></trkpt>
      <trkpt lat="40.738524" lon="-73.960302"><ele>3.6</ele><time>2026-07-29T00:31:08.000Z</time></trkpt>
      <trkpt lat="40.738537" lon="-73.960287"><ele>3.6</ele><time>2026-07-29T00:31:09.000Z</time></trkpt>
      <trkpt lat="40.738549" lon="-73.960274"><ele>3.6</ele><time>2026-07-29T00:31:10.000Z</time></trkpt>
      <trkpt lat="40.738559" lon="-73.960261"><ele>3.6</ele><time>2026-07-29T00:31:11.000Z</time></trkpt>
      <trkpt lat="40.738568" lon="-73.960248"><ele>3.6</ele><time>2026-07-29T00:31:12.000Z</time></trkpt>
      <trkpt lat="40.738577" lon="-73.960235"><ele>3.6</ele><time>2026-07-29T00:31:13.000Z</time></trkpt>
      <trkpt lat="40.738589" lon="-73.960223"><ele>3.4</ele><time>2026-07-29T00:31:14.000Z</time></trkpt>
      <trkpt lat="40.738604" lon="-73.960213"><ele>3.4</ele><time>2026-07-29T00:31:15.000Z</time></trkpt>
      <trkpt lat="40.73862" lon="-73.960206"><ele>3.4</ele><time>2026-07-29T00:31:16.000Z</time></trkpt>
      <trkpt lat="40.738639" lon="-73.960201"><ele>3.4</ele><time>2026-07-29T00:31:17.000Z</time></trkpt>
      <trkpt lat="40.738658" lon="-73.960198"><ele>3.4</ele><time>2026-07-29T00:31:18.000Z</time></trkpt>
      <trkpt lat="40.738678" lon="-73.960195"><ele>3.4</ele><time>2026-07-29T00:31:19.000Z</time></trkpt>
      <trkpt lat="40.738698" lon="-73.960191"><ele>3.2</ele><time>2026-07-29T00:31:20.000Z</time></trkpt>
      <trkpt lat="40.738717" lon="-73.960187"><ele>3.2</ele><time>2026-07-29T00:31:21.000Z</time></trkpt>
      <trkpt lat="40.738737" lon="-73.960184"><ele>3.2</ele><time>2026-07-29T00:31:22.000Z</time></trkpt>
      <trkpt lat="40.738755" lon="-73.96018"><ele>3.2</ele><time>2026-07-29T00:31:23.000Z</time></trkpt>
      <trkpt lat="40.738773" lon="-73.960175"><ele>3.2</ele><time>2026-07-29T00:31:24.000Z</time></trkpt>
      <trkpt lat="40.73879" lon="-73.960168"><ele>3.2</ele><time>2026-07-29T00:31:25.000Z</time></trkpt>
      <trkpt lat="40.738807" lon="-73.96016"><ele>3.2</ele><time>2026-07-29T00:31:26.000Z</time></trkpt>
      <trkpt lat="40.738825" lon="-73.96015"><ele>3.2</ele><time>2026-07-29T00:31:27.000Z</time></trkpt>
      <trkpt lat="40.738842" lon="-73.960136"><ele>3.2</ele><time>2026-07-29T00:31:28.000Z</time></trkpt>
      <trkpt lat="40.738857" lon="-73.960118"><ele>3.2</ele><time>2026-07-29T00:31:29.000Z</time></trkpt>
      <trkpt lat="40.738868" lon="-73.960095"><ele>3.2</ele><time>2026-07-29T00:31:30.000Z</time></trkpt>
      <trkpt lat="40.738877" lon="-73.960068"><ele>3.2</ele><time>2026-07-29T00:31:31.000Z</time></trkpt>
      <trkpt lat="40.738885" lon="-73.960041"><ele>3.4</ele><time>2026-07-29T00:31:32.000Z</time></trkpt>
      <trkpt lat="40.738895" lon="-73.960016"><ele>3.4</ele><time>2026-07-29T00:31:33.000Z</time></trkpt>
      <trkpt lat="40.738907" lon="-73.959995"><ele>3.4</ele><time>2026-07-29T00:31:34.000Z</time></trkpt>
      <trkpt lat="40.738921" lon="-73.959976"><ele>3.4</ele><time>2026-07-29T00:31:35.000Z</time></trkpt>
      <trkpt lat="40.738937" lon="-73.95996"><ele>3.4</ele><time>2026-07-29T00:31:36.000Z</time></trkpt>
      <trkpt lat="40.738953" lon="-73.959948"><ele>3.4</ele><time>2026-07-29T00:31:37.000Z</time></trkpt>
      <trkpt lat="40.73897" lon="-73.959938"><ele>3.4</ele><time>2026-07-29T00:31:38.000Z</time></trkpt>
      <trkpt lat="40.738984" lon="-73.959931"><ele>3.4</ele><time>2026-07-29T00:31:39.000Z</time></trkpt>
      <trkpt lat="40.738993" lon="-73.959927"><ele>3.4</ele><time>2026-07-29T00:31:40.000Z</time></trkpt>
      <trkpt lat="40.738998" lon="-73.959926"><ele>3.6</ele><time>2026-07-29T00:31:41.000Z</time></trkpt>
      <trkpt lat="40.739004" lon="-73.959858"><ele>4</ele><time>2026-07-29T00:31:55.000Z</time></trkpt>
      <trkpt lat="40.739007" lon="-73.959832"><ele>4</ele><time>2026-07-29T00:31:56.000Z</time></trkpt>
      <trkpt lat="40.73901" lon="-73.959801"><ele>4</ele><time>2026-07-29T00:31:57.000Z</time></trkpt>
      <trkpt lat="40.739015" lon="-73.95977"><ele>3.8</ele><time>2026-07-29T00:31:58.000Z</time></trkpt>
      <trkpt lat="40.739019" lon="-73.959736"><ele>3.8</ele><time>2026-07-29T00:31:59.000Z</time></trkpt>
      <trkpt lat="40.739023" lon="-73.959702"><ele>3.6</ele><time>2026-07-29T00:32:00.000Z</time></trkpt>
      <trkpt lat="40.739025" lon="-73.959668"><ele>3.4</ele><time>2026-07-29T00:32:01.000Z</time></trkpt>
      <trkpt lat="40.739026" lon="-73.959637"><ele>3.4</ele><time>2026-07-29T00:32:02.000Z</time></trkpt>
      <trkpt lat="40.739027" lon="-73.959606"><ele>3.2</ele><time>2026-07-29T00:32:03.000Z</time></trkpt>
      <trkpt lat="40.739027" lon="-73.959576"><ele>3.2</ele><time>2026-07-29T00:32:04.000Z</time></trkpt>
      <trkpt lat="40.739027" lon="-73.959546"><ele>3</ele><time>2026-07-29T00:32:05.000Z</time></trkpt>
      <trkpt lat="40.739027" lon="-73.959515"><ele>3</ele><time>2026-07-29T00:32:06.000Z</time></trkpt>
      <trkpt lat="40.739026" lon="-73.959485"><ele>3</ele><time>2026-07-29T00:32:07.000Z</time></trkpt>
      <trkpt lat="40.739025" lon="-73.959453"><ele>3</ele><time>2026-07-29T00:32:08.000Z</time></trkpt>
      <trkpt lat="40.739025" lon="-73.959421"><ele>3</ele><time>2026-07-29T00:32:09.000Z</time></trkpt>
      <trkpt lat="40.739026" lon="-73.95939"><ele>3</ele><time>2026-07-29T00:32:10.000Z</time></trkpt>
      <trkpt lat="40.739028" lon="-73.959358"><ele>3</ele><time>2026-07-29T00:32:11.000Z</time></trkpt>
      <trkpt lat="40.73903" lon="-73.959327"><ele>3.2</ele><time>2026-07-29T00:32:12.000Z</time></trkpt>
      <trkpt lat="40.739031" lon="-73.959297"><ele>3.2</ele><time>2026-07-29T00:32:13.000Z</time></trkpt>
      <trkpt lat="40.739034" lon="-73.959269"><ele>3.2</ele><time>2026-07-29T00:32:14.000Z</time></trkpt>
      <trkpt lat="40.739036" lon="-73.959243"><ele>3.2</ele><time>2026-07-29T00:32:15.000Z</time></trkpt>
      <trkpt lat="40.739041" lon="-73.959218"><ele>3.2</ele><time>2026-07-29T00:32:16.000Z</time></trkpt>
      <trkpt lat="40.739046" lon="-73.959194"><ele>3.2</ele><time>2026-07-29T00:32:17.000Z</time></trkpt>
      <trkpt lat="40.739054" lon="-73.959172"><ele>3.2</ele><time>2026-07-29T00:32:18.000Z</time></trkpt>
      <trkpt lat="40.739064" lon="-73.959152"><ele>3.2</ele><time>2026-07-29T00:32:19.000Z</time></trkpt>
      <trkpt lat="40.739077" lon="-73.959133"><ele>3.2</ele><time>2026-07-29T00:32:20.000Z</time></trkpt>
      <trkpt lat="40.739092" lon="-73.959115"><ele>3.2</ele><time>2026-07-29T00:32:21.000Z</time></trkpt>
      <trkpt lat="40.739109" lon="-73.959097"><ele>3.2</ele><time>2026-07-29T00:32:22.000Z</time></trkpt>
      <trkpt lat="40.739126" lon="-73.95908"><ele>3.2</ele><time>2026-07-29T00:32:23.000Z</time></trkpt>
      <trkpt lat="40.739142" lon="-73.959063"><ele>3.2</ele><time>2026-07-29T00:32:24.000Z</time></trkpt>
      <trkpt lat="40.739157" lon="-73.959046"><ele>3.2</ele><time>2026-07-29T00:32:25.000Z</time></trkpt>
      <trkpt lat="40.739171" lon="-73.959027"><ele>3.2</ele><time>2026-07-29T00:32:26.000Z</time></trkpt>
      <trkpt lat="40.739185" lon="-73.959007"><ele>3.2</ele><time>2026-07-29T00:32:27.000Z</time></trkpt>
      <trkpt lat="40.739199" lon="-73.958986"><ele>3.2</ele><time>2026-07-29T00:32:28.000Z</time></trkpt>
      <trkpt lat="40.739213" lon="-73.958964"><ele>3.2</ele><time>2026-07-29T00:32:29.000Z</time></trkpt>
      <trkpt lat="40.739226" lon="-73.958943"><ele>3</ele><time>2026-07-29T00:32:30.000Z</time></trkpt>
      <trkpt lat="40.739238" lon="-73.958924"><ele>3</ele><time>2026-07-29T00:32:31.000Z</time></trkpt>
      <trkpt lat="40.739249" lon="-73.958905"><ele>3</ele><time>2026-07-29T00:32:32.000Z</time></trkpt>
      <trkpt lat="40.73926" lon="-73.958887"><ele>3</ele><time>2026-07-29T00:32:33.000Z</time></trkpt>
      <trkpt lat="40.739269" lon="-73.958865"><ele>3</ele><time>2026-07-29T00:32:34.000Z</time></trkpt>
      <trkpt lat="40.739277" lon="-73.958841"><ele>3</ele><time>2026-07-29T00:32:35.000Z</time></trkpt>
      <trkpt lat="40.739283" lon="-73.958813"><ele>3</ele><time>2026-07-29T00:32:36.000Z</time></trkpt>
      <trkpt lat="40.739288" lon="-73.958785"><ele>2.8</ele><time>2026-07-29T00:32:37.000Z</time></trkpt>
      <trkpt lat="40.739292" lon="-73.958757"><ele>2.8</ele><time>2026-07-29T00:32:38.000Z</time></trkpt>
      <trkpt lat="40.739297" lon="-73.95873"><ele>2.8</ele><time>2026-07-29T00:32:39.000Z</time></trkpt>
      <trkpt lat="40.739302" lon="-73.958704"><ele>2.8</ele><time>2026-07-29T00:32:40.000Z</time></trkpt>
      <trkpt lat="40.739308" lon="-73.958677"><ele>2.8</ele><time>2026-07-29T00:32:41.000Z</time></trkpt>
      <trkpt lat="40.739313" lon="-73.958651"><ele>2.8</ele><time>2026-07-29T00:32:42.000Z</time></trkpt>
      <trkpt lat="40.739318" lon="-73.958625"><ele>2.8</ele><time>2026-07-29T00:32:43.000Z</time></trkpt>
      <trkpt lat="40.739323" lon="-73.958599"><ele>2.8</ele><time>2026-07-29T00:32:44.000Z</time></trkpt>
      <trkpt lat="40.73933" lon="-73.958575"><ele>2.6</ele><time>2026-07-29T00:32:45.000Z</time></trkpt>
      <trkpt lat="40.739338" lon="-73.958552"><ele>2.6</ele><time>2026-07-29T00:32:46.000Z</time></trkpt>
      <trkpt lat="40.739348" lon="-73.95853"><ele>2.6</ele><time>2026-07-29T00:32:47.000Z</time></trkpt>
      <trkpt lat="40.739357" lon="-73.95851"><ele>2.6</ele><time>2026-07-29T00:32:48.000Z</time></trkpt>
      <trkpt lat="40.739366" lon="-73.958489"><ele>2.6</ele><time>2026-07-29T00:32:49.000Z</time></trkpt>
      <trkpt lat="40.739374" lon="-73.958469"><ele>2.6</ele><time>2026-07-29T00:32:50.000Z</time></trkpt>
      <trkpt lat="40.73938" lon="-73.95845"><ele>2.6</ele><time>2026-07-29T00:32:51.000Z</time></trkpt>
      <trkpt lat="40.739384" lon="-73.95843"><ele>2.6</ele><time>2026-07-29T00:32:52.000Z</time></trkpt>
      <trkpt lat="40.739387" lon="-73.958406"><ele>2.6</ele><time>2026-07-29T00:32:53.000Z</time></trkpt>
      <trkpt lat="40.73939" lon="-73.958382"><ele>2.6</ele><time>2026-07-29T00:32:54.000Z</time></trkpt>
      <trkpt lat="40.739393" lon="-73.958356"><ele>2.6</ele><time>2026-07-29T00:32:55.000Z</time></trkpt>
      <trkpt lat="40.739396" lon="-73.958331"><ele>2.6</ele><time>2026-07-29T00:32:56.000Z</time></trkpt>
      <trkpt lat="40.7394" lon="-73.958307"><ele>2.6</ele><time>2026-07-29T00:32:57.000Z</time></trkpt>
      <trkpt lat="40.739404" lon="-73.958283"><ele>2.6</ele><time>2026-07-29T00:32:58.000Z</time></trkpt>
      <trkpt lat="40.739408" lon="-73.958258"><ele>2.6</ele><time>2026-07-29T00:32:59.000Z</time></trkpt>
      <trkpt lat="40.739412" lon="-73.958233"><ele>2.6</ele><time>2026-07-29T00:33:00.000Z</time></trkpt>
      <trkpt lat="40.739415" lon="-73.958208"><ele>2.6</ele><time>2026-07-29T00:33:01.000Z</time></trkpt>
      <trkpt lat="40.739419" lon="-73.958183"><ele>2.6</ele><time>2026-07-29T00:33:02.000Z</time></trkpt>
      <trkpt lat="40.739423" lon="-73.958157"><ele>2.6</ele><time>2026-07-29T00:33:03.000Z</time></trkpt>
      <trkpt lat="40.739429" lon="-73.958132"><ele>2.6</ele><time>2026-07-29T00:33:04.000Z</time></trkpt>
      <trkpt lat="40.739436" lon="-73.958107"><ele>2.6</ele><time>2026-07-29T00:33:05.000Z</time></trkpt>
      <trkpt lat="40.739443" lon="-73.958082"><ele>2.6</ele><time>2026-07-29T00:33:06.000Z</time></trkpt>
      <trkpt lat="40.739451" lon="-73.958057"><ele>2.6</ele><time>2026-07-29T00:33:07.000Z</time></trkpt>
      <trkpt lat="40.739458" lon="-73.958031"><ele>2.6</ele><time>2026-07-29T00:33:08.000Z</time></trkpt>
      <trkpt lat="40.739466" lon="-73.958005"><ele>2.6</ele><time>2026-07-29T00:33:09.000Z</time></trkpt>
      <trkpt lat="40.739473" lon="-73.957979"><ele>2.6</ele><time>2026-07-29T00:33:10.000Z</time></trkpt>
      <trkpt lat="40.739482" lon="-73.957954"><ele>2.6</ele><time>2026-07-29T00:33:11.000Z</time></trkpt>
      <trkpt lat="40.739492" lon="-73.957928"><ele>2.6</ele><time>2026-07-29T00:33:12.000Z</time></trkpt>
      <trkpt lat="40.739502" lon="-73.957904"><ele>2.6</ele><time>2026-07-29T00:33:13.000Z</time></trkpt>
      <trkpt lat="40.739514" lon="-73.95788"><ele>2.6</ele><time>2026-07-29T00:33:14.000Z</time></trkpt>
      <trkpt lat="40.739526" lon="-73.95786"><ele>2.6</ele><time>2026-07-29T00:33:15.000Z</time></trkpt>
      <trkpt lat="40.739539" lon="-73.957843"><ele>2.6</ele><time>2026-07-29T00:33:16.000Z</time></trkpt>
      <trkpt lat="40.739552" lon="-73.957827"><ele>2.8</ele><time>2026-07-29T00:33:17.000Z</time></trkpt>
      <trkpt lat="40.739567" lon="-73.957813"><ele>2.8</ele><time>2026-07-29T00:33:18.000Z</time></trkpt>
      <trkpt lat="40.739581" lon="-73.957801"><ele>2.8</ele><time>2026-07-29T00:33:19.000Z</time></trkpt>
      <trkpt lat="40.739596" lon="-73.957791"><ele>2.8</ele><time>2026-07-29T00:33:20.000Z</time></trkpt>
      <trkpt lat="40.739611" lon="-73.957784"><ele>2.8</ele><time>2026-07-29T00:33:21.000Z</time></trkpt>
      <trkpt lat="40.739626" lon="-73.957778"><ele>2.8</ele><time>2026-07-29T00:33:22.000Z</time></trkpt>
      <trkpt lat="40.73964" lon="-73.957773"><ele>3</ele><time>2026-07-29T00:33:23.000Z</time></trkpt>
      <trkpt lat="40.739654" lon="-73.957769"><ele>3</ele><time>2026-07-29T00:33:24.000Z</time></trkpt>
      <trkpt lat="40.739667" lon="-73.957764"><ele>3</ele><time>2026-07-29T00:33:25.000Z</time></trkpt>
      <trkpt lat="40.739679" lon="-73.95776"><ele>3</ele><time>2026-07-29T00:33:26.000Z</time></trkpt>
      <trkpt lat="40.739691" lon="-73.957755"><ele>3</ele><time>2026-07-29T00:33:27.000Z</time></trkpt>
      <trkpt lat="40.739704" lon="-73.957749"><ele>3.2</ele><time>2026-07-29T00:33:28.000Z</time></trkpt>
      <trkpt lat="40.739715" lon="-73.957742"><ele>3.2</ele><time>2026-07-29T00:33:29.000Z</time></trkpt>
      <trkpt lat="40.739725" lon="-73.957736"><ele>3.2</ele><time>2026-07-29T00:33:30.000Z</time></trkpt>
      <trkpt lat="40.739734" lon="-73.957731"><ele>3.2</ele><time>2026-07-29T00:33:31.000Z</time></trkpt>
      <trkpt lat="40.73974" lon="-73.957728"><ele>3.2</ele><time>2026-07-29T00:33:32.000Z</time></trkpt>
      <trkpt lat="40.739742" lon="-73.95773"><ele>3.4</ele><time>2026-07-29T00:33:33.000Z</time></trkpt>
      <trkpt lat="40.739738" lon="-73.957738"><ele>3.4</ele><time>2026-07-29T00:33:34.000Z</time></trkpt>
      <trkpt lat="40.739726" lon="-73.957752"><ele>3.4</ele><time>2026-07-29T00:33:35.000Z</time></trkpt>
      <trkpt lat="40.73971" lon="-73.957768"><ele>3.4</ele><time>2026-07-29T00:33:36.000Z</time></trkpt>
      <trkpt lat="40.739693" lon="-73.95778"><ele>3.4</ele><time>2026-07-29T00:33:37.000Z</time></trkpt>
      <trkpt lat="40.739676" lon="-73.957785"><ele>3.4</ele><time>2026-07-29T00:33:38.000Z</time></trkpt>
      <trkpt lat="40.739659" lon="-73.957783"><ele>3.4</ele><time>2026-07-29T00:33:39.000Z</time></trkpt>
      <trkpt lat="40.739641" lon="-73.957776"><ele>3.2</ele><time>2026-07-29T00:33:40.000Z</time></trkpt>
      <trkpt lat="40.739623" lon="-73.957767"><ele>3.2</ele><time>2026-07-29T00:33:41.000Z</time></trkpt>
      <trkpt lat="40.739607" lon="-73.95776"><ele>3.2</ele><time>2026-07-29T00:33:42.000Z</time></trkpt>
      <trkpt lat="40.739592" lon="-73.957756"><ele>3.2</ele><time>2026-07-29T00:33:43.000Z</time></trkpt>
      <trkpt lat="40.739577" lon="-73.957758"><ele>3.2</ele><time>2026-07-29T00:33:44.000Z</time></trkpt>
      <trkpt lat="40.739562" lon="-73.957764"><ele>3.2</ele><time>2026-07-29T00:33:45.000Z</time></trkpt>
      <trkpt lat="40.739546" lon="-73.957775"><ele>3.2</ele><time>2026-07-29T00:33:46.000Z</time></trkpt>
      <trkpt lat="40.73953" lon="-73.957786"><ele>3</ele><time>2026-07-29T00:33:47.000Z</time></trkpt>
      <trkpt lat="40.739514" lon="-73.957798"><ele>3</ele><time>2026-07-29T00:33:48.000Z</time></trkpt>
      <trkpt lat="40.739499" lon="-73.95781"><ele>3</ele><time>2026-07-29T00:33:49.000Z</time></trkpt>
      <trkpt lat="40.739484" lon="-73.957822"><ele>3</ele><time>2026-07-29T00:33:50.000Z</time></trkpt>
      <trkpt lat="40.739469" lon="-73.957835"><ele>2.8</ele><time>2026-07-29T00:33:51.000Z</time></trkpt>
      <trkpt lat="40.739454" lon="-73.957851"><ele>2.8</ele><time>2026-07-29T00:33:52.000Z</time></trkpt>
      <trkpt lat="40.73944" lon="-73.957869"><ele>2.8</ele><time>2026-07-29T00:33:53.000Z</time></trkpt>
      <trkpt lat="40.739427" lon="-73.957889"><ele>2.8</ele><time>2026-07-29T00:33:54.000Z</time></trkpt>
      <trkpt lat="40.739415" lon="-73.957911"><ele>2.6</ele><time>2026-07-29T00:33:55.000Z</time></trkpt>
      <trkpt lat="40.739403" lon="-73.957934"><ele>2.6</ele><time>2026-07-29T00:33:56.000Z</time></trkpt>
      <trkpt lat="40.73939" lon="-73.957958"><ele>2.6</ele><time>2026-07-29T00:33:57.000Z</time></trkpt>
      <trkpt lat="40.739378" lon="-73.957982"><ele>2.6</ele><time>2026-07-29T00:33:58.000Z</time></trkpt>
      <trkpt lat="40.739367" lon="-73.958006"><ele>2.4</ele><time>2026-07-29T00:33:59.000Z</time></trkpt>
      <trkpt lat="40.739356" lon="-73.95803"><ele>2.4</ele><time>2026-07-29T00:34:00.000Z</time></trkpt>
      <trkpt lat="40.739346" lon="-73.958053"><ele>2.4</ele><time>2026-07-29T00:34:01.000Z</time></trkpt>
      <trkpt lat="40.739336" lon="-73.958077"><ele>2.4</ele><time>2026-07-29T00:34:02.000Z</time></trkpt>
      <trkpt lat="40.739326" lon="-73.958101"><ele>2.4</ele><time>2026-07-29T00:34:03.000Z</time></trkpt>
      <trkpt lat="40.739316" lon="-73.958124"><ele>2.2</ele><time>2026-07-29T00:34:04.000Z</time></trkpt>
      <trkpt lat="40.739307" lon="-73.958147"><ele>2.2</ele><time>2026-07-29T00:34:05.000Z</time></trkpt>
      <trkpt lat="40.739299" lon="-73.958171"><ele>2.2</ele><time>2026-07-29T00:34:06.000Z</time></trkpt>
      <trkpt lat="40.739292" lon="-73.958194"><ele>2.2</ele><time>2026-07-29T00:34:07.000Z</time></trkpt>
      <trkpt lat="40.739285" lon="-73.958217"><ele>2.2</ele><time>2026-07-29T00:34:08.000Z</time></trkpt>
      <trkpt lat="40.73928" lon="-73.95824"><ele>2.2</ele><time>2026-07-29T00:34:09.000Z</time></trkpt>
      <trkpt lat="40.739275" lon="-73.958263"><ele>2.2</ele><time>2026-07-29T00:34:10.000Z</time></trkpt>
      <trkpt lat="40.739271" lon="-73.958288"><ele>2</ele><time>2026-07-29T00:34:11.000Z</time></trkpt>
      <trkpt lat="40.739266" lon="-73.958313"><ele>2</ele><time>2026-07-29T00:34:12.000Z</time></trkpt>
      <trkpt lat="40.73926" lon="-73.958338"><ele>2</ele><time>2026-07-29T00:34:13.000Z</time></trkpt>
      <trkpt lat="40.739252" lon="-73.95836"><ele>2</ele><time>2026-07-29T00:34:14.000Z</time></trkpt>
      <trkpt lat="40.739242" lon="-73.958381"><ele>1.8</ele><time>2026-07-29T00:34:15.000Z</time></trkpt>
      <trkpt lat="40.73923" lon="-73.958401"><ele>1.8</ele><time>2026-07-29T00:34:16.000Z</time></trkpt>
      <trkpt lat="40.739219" lon="-73.958421"><ele>1.8</ele><time>2026-07-29T00:34:17.000Z</time></trkpt>
      <trkpt lat="40.739208" lon="-73.958441"><ele>1.8</ele><time>2026-07-29T00:34:18.000Z</time></trkpt>
      <trkpt lat="40.739196" lon="-73.958464"><ele>1.8</ele><time>2026-07-29T00:34:19.000Z</time></trkpt>
      <trkpt lat="40.739186" lon="-73.958488"><ele>1.6</ele><time>2026-07-29T00:34:20.000Z</time></trkpt>
      <trkpt lat="40.739177" lon="-73.958512"><ele>1.6</ele><time>2026-07-29T00:34:21.000Z</time></trkpt>
      <trkpt lat="40.739169" lon="-73.958536"><ele>1.6</ele><time>2026-07-29T00:34:22.000Z</time></trkpt>
      <trkpt lat="40.739161" lon="-73.95856"><ele>1.6</ele><time>2026-07-29T00:34:23.000Z</time></trkpt>
      <trkpt lat="40.739153" lon="-73.958585"><ele>1.6</ele><time>2026-07-29T00:34:24.000Z</time></trkpt>
      <trkpt lat="40.739144" lon="-73.958609"><ele>1.6</ele><time>2026-07-29T00:34:25.000Z</time></trkpt>
      <trkpt lat="40.739136" lon="-73.958633"><ele>1.6</ele><time>2026-07-29T00:34:26.000Z</time></trkpt>
      <trkpt lat="40.739128" lon="-73.958657"><ele>1.6</ele><time>2026-07-29T00:34:27.000Z</time></trkpt>
      <trkpt lat="40.739119" lon="-73.958682"><ele>1.6</ele><time>2026-07-29T00:34:28.000Z</time></trkpt>
      <trkpt lat="40.739108" lon="-73.958706"><ele>1.6</ele><time>2026-07-29T00:34:29.000Z</time></trkpt>
      <trkpt lat="40.739096" lon="-73.958727"><ele>1.6</ele><time>2026-07-29T00:34:30.000Z</time></trkpt>
      <trkpt lat="40.739083" lon="-73.958747"><ele>1.6</ele><time>2026-07-29T00:34:31.000Z</time></trkpt>
      <trkpt lat="40.73907" lon="-73.958766"><ele>1.6</ele><time>2026-07-29T00:34:32.000Z</time></trkpt>
      <trkpt lat="40.739057" lon="-73.958785"><ele>1.6</ele><time>2026-07-29T00:34:33.000Z</time></trkpt>
      <trkpt lat="40.739044" lon="-73.958805"><ele>1.6</ele><time>2026-07-29T00:34:34.000Z</time></trkpt>
      <trkpt lat="40.739031" lon="-73.958824"><ele>1.6</ele><time>2026-07-29T00:34:35.000Z</time></trkpt>
      <trkpt lat="40.739019" lon="-73.958846"><ele>1.6</ele><time>2026-07-29T00:34:36.000Z</time></trkpt>
      <trkpt lat="40.739007" lon="-73.958868"><ele>1.6</ele><time>2026-07-29T00:34:37.000Z</time></trkpt>
      <trkpt lat="40.738995" lon="-73.958891"><ele>1.6</ele><time>2026-07-29T00:34:38.000Z</time></trkpt>
      <trkpt lat="40.738985" lon="-73.958913"><ele>1.6</ele><time>2026-07-29T00:34:39.000Z</time></trkpt>
      <trkpt lat="40.738974" lon="-73.958932"><ele>1.6</ele><time>2026-07-29T00:34:40.000Z</time></trkpt>
      <trkpt lat="40.738964" lon="-73.958949"><ele>1.6</ele><time>2026-07-29T00:34:41.000Z</time></trkpt>
      <trkpt lat="40.738953" lon="-73.958967"><ele>1.8</ele><time>2026-07-29T00:34:42.000Z</time></trkpt>
      <trkpt lat="40.738942" lon="-73.958985"><ele>1.8</ele><time>2026-07-29T00:34:43.000Z</time></trkpt>
      <trkpt lat="40.73893" lon="-73.959005"><ele>1.8</ele><time>2026-07-29T00:34:44.000Z</time></trkpt>
      <trkpt lat="40.738919" lon="-73.959026"><ele>2</ele><time>2026-07-29T00:34:45.000Z</time></trkpt>
      <trkpt lat="40.738909" lon="-73.959048"><ele>2</ele><time>2026-07-29T00:34:46.000Z</time></trkpt>
      <trkpt lat="40.738899" lon="-73.95907"><ele>2.2</ele><time>2026-07-29T00:34:47.000Z</time></trkpt>
      <trkpt lat="40.73889" lon="-73.959094"><ele>2.2</ele><time>2026-07-29T00:34:48.000Z</time></trkpt>
      <trkpt lat="40.738881" lon="-73.959118"><ele>2.2</ele><time>2026-07-29T00:34:49.000Z</time></trkpt>
      <trkpt lat="40.738872" lon="-73.959141"><ele>2.4</ele><time>2026-07-29T00:34:50.000Z</time></trkpt>
      <trkpt lat="40.738863" lon="-73.959165"><ele>2.4</ele><time>2026-07-29T00:34:51.000Z</time></trkpt>
      <trkpt lat="40.738855" lon="-73.959189"><ele>2.4</ele><time>2026-07-29T00:34:52.000Z</time></trkpt>
      <trkpt lat="40.738847" lon="-73.959215"><ele>2.4</ele><time>2026-07-29T00:34:53.000Z</time></trkpt>
      <trkpt lat="40.73884" lon="-73.959241"><ele>2.4</ele><time>2026-07-29T00:34:54.000Z</time></trkpt>
      <trkpt lat="40.738833" lon="-73.959268"><ele>2.6</ele><time>2026-07-29T00:34:55.000Z</time></trkpt>
      <trkpt lat="40.738827" lon="-73.959293"><ele>2.6</ele><time>2026-07-29T00:34:56.000Z</time></trkpt>
      <trkpt lat="40.73882" lon="-73.959318"><ele>2.6</ele><time>2026-07-29T00:34:57.000Z</time></trkpt>
      <trkpt lat="40.738813" lon="-73.959343"><ele>2.6</ele><time>2026-07-29T00:34:58.000Z</time></trkpt>
      <trkpt lat="40.738806" lon="-73.959369"><ele>2.6</ele><time>2026-07-29T00:34:59.000Z</time></trkpt>
      <trkpt lat="40.7388" lon="-73.959393"><ele>2.6</ele><time>2026-07-29T00:35:00.000Z</time></trkpt>
      <trkpt lat="40.738792" lon="-73.959417"><ele>2.8</ele><time>2026-07-29T00:35:01.000Z</time></trkpt>
      <trkpt lat="40.738784" lon="-73.959439"><ele>2.8</ele><time>2026-07-29T00:35:02.000Z</time></trkpt>
      <trkpt lat="40.738774" lon="-73.959462"><ele>2.8</ele><time>2026-07-29T00:35:03.000Z</time></trkpt>
      <trkpt lat="40.738763" lon="-73.959485"><ele>2.8</ele><time>2026-07-29T00:35:04.000Z</time></trkpt>
      <trkpt lat="40.73875" lon="-73.959507"><ele>2.8</ele><time>2026-07-29T00:35:05.000Z</time></trkpt>
      <trkpt lat="40.738738" lon="-73.959528"><ele>2.8</ele><time>2026-07-29T00:35:06.000Z</time></trkpt>
      <trkpt lat="40.738726" lon="-73.959548"><ele>2.8</ele><time>2026-07-29T00:35:07.000Z</time></trkpt>
      <trkpt lat="40.738714" lon="-73.959569"><ele>2.8</ele><time>2026-07-29T00:35:08.000Z</time></trkpt>
      <trkpt lat="40.738702" lon="-73.959591"><ele>2.8</ele><time>2026-07-29T00:35:09.000Z</time></trkpt>
      <trkpt lat="40.738692" lon="-73.959614"><ele>2.8</ele><time>2026-07-29T00:35:10.000Z</time></trkpt>
      <trkpt lat="40.738684" lon="-73.959638"><ele>2.8</ele><time>2026-07-29T00:35:11.000Z</time></trkpt>
      <trkpt lat="40.738676" lon="-73.959662"><ele>2.8</ele><time>2026-07-29T00:35:12.000Z</time></trkpt>
      <trkpt lat="40.738669" lon="-73.959688"><ele>2.8</ele><time>2026-07-29T00:35:13.000Z</time></trkpt>
      <trkpt lat="40.738661" lon="-73.959716"><ele>2.8</ele><time>2026-07-29T00:35:14.000Z</time></trkpt>
      <trkpt lat="40.738653" lon="-73.959743"><ele>2.8</ele><time>2026-07-29T00:35:15.000Z</time></trkpt>
      <trkpt lat="40.738647" lon="-73.959769"><ele>2.8</ele><time>2026-07-29T00:35:16.000Z</time></trkpt>
      <trkpt lat="40.738645" lon="-73.959795"><ele>2.6</ele><time>2026-07-29T00:35:17.000Z</time></trkpt>
      <trkpt lat="40.738649" lon="-73.95982"><ele>2.6</ele><time>2026-07-29T00:35:18.000Z</time></trkpt>
      <trkpt lat="40.73866" lon="-73.959842"><ele>2.6</ele><time>2026-07-29T00:35:19.000Z</time></trkpt>
      <trkpt lat="40.738675" lon="-73.959858"><ele>2.6</ele><time>2026-07-29T00:35:20.000Z</time></trkpt>
      <trkpt lat="40.738694" lon="-73.959865"><ele>2.4</ele><time>2026-07-29T00:35:21.000Z</time></trkpt>
      <trkpt lat="40.738713" lon="-73.959864"><ele>2.4</ele><time>2026-07-29T00:35:22.000Z</time></trkpt>
      <trkpt lat="40.738731" lon="-73.95986"><ele>2.4</ele><time>2026-07-29T00:35:23.000Z</time></trkpt>
      <trkpt lat="40.738748" lon="-73.959855"><ele>2.2</ele><time>2026-07-29T00:35:24.000Z</time></trkpt>
      <trkpt lat="40.738764" lon="-73.959852"><ele>2.2</ele><time>2026-07-29T00:35:25.000Z</time></trkpt>
      <trkpt lat="40.738782" lon="-73.95985"><ele>2.2</ele><time>2026-07-29T00:35:26.000Z</time></trkpt>
      <trkpt lat="40.7388" lon="-73.959848"><ele>2.2</ele><time>2026-07-29T00:35:27.000Z</time></trkpt>
      <trkpt lat="40.738818" lon="-73.959847"><ele>2.2</ele><time>2026-07-29T00:35:28.000Z</time></trkpt>
      <trkpt lat="40.738836" lon="-73.959847"><ele>2.2</ele><time>2026-07-29T00:35:29.000Z</time></trkpt>
      <trkpt lat="40.738853" lon="-73.959846"><ele>2.2</ele><time>2026-07-29T00:35:30.000Z</time></trkpt>
      <trkpt lat="40.73887" lon="-73.959847"><ele>2.2</ele><time>2026-07-29T00:35:31.000Z</time></trkpt>
      <trkpt lat="40.738889" lon="-73.959848"><ele>2.2</ele><time>2026-07-29T00:35:32.000Z</time></trkpt>
      <trkpt lat="40.738908" lon="-73.959847"><ele>2.2</ele><time>2026-07-29T00:35:33.000Z</time></trkpt>
      <trkpt lat="40.738927" lon="-73.959844"><ele>2.4</ele><time>2026-07-29T00:35:34.000Z</time></trkpt>
      <trkpt lat="40.738946" lon="-73.959843"><ele>2.4</ele><time>2026-07-29T00:35:35.000Z</time></trkpt>
      <trkpt lat="40.738964" lon="-73.959845"><ele>2.4</ele><time>2026-07-29T00:35:36.000Z</time></trkpt>
      <trkpt lat="40.738981" lon="-73.959852"><ele>2.6</ele><time>2026-07-29T00:35:37.000Z</time></trkpt>
      <trkpt lat="40.738993" lon="-73.959865"><ele>2.6</ele><time>2026-07-29T00:35:38.000Z</time></trkpt>
      <trkpt lat="40.738999" lon="-73.959881"><ele>2.6</ele><time>2026-07-29T00:35:39.000Z</time></trkpt>
      <trkpt lat="40.738999" lon="-73.9599"><ele>2.6</ele><time>2026-07-29T00:35:40.000Z</time></trkpt>
      <trkpt lat="40.738993" lon="-73.95992"><ele>2.8</ele><time>2026-07-29T00:35:41.000Z</time></trkpt>
      <trkpt lat="40.738984" lon="-73.959937"><ele>2.8</ele><time>2026-07-29T00:35:42.000Z</time></trkpt>
      <trkpt lat="40.738974" lon="-73.959953"><ele>2.8</ele><time>2026-07-29T00:35:43.000Z</time></trkpt>
      <trkpt lat="40.738965" lon="-73.959968"><ele>3</ele><time>2026-07-29T00:35:44.000Z</time></trkpt>
      <trkpt lat="40.738958" lon="-73.95998"><ele>3</ele><time>2026-07-29T00:35:45.000Z</time></trkpt>
      <trkpt lat="40.738953" lon="-73.959988"><ele>3</ele><time>2026-07-29T00:35:46.000Z</time></trkpt>
      <trkpt lat="40.738949" lon="-73.959991"><ele>3</ele><time>2026-07-29T00:35:47.000Z</time></trkpt>
      <trkpt lat="40.738946" lon="-73.959986"><ele>3</ele><time>2026-07-29T00:35:48.000Z</time></trkpt>
      <trkpt lat="40.738942" lon="-73.959972"><ele>3</ele><time>2026-07-29T00:35:49.000Z</time></trkpt>
      <trkpt lat="40.738933" lon="-73.959959"><ele>3</ele><time>2026-07-29T00:35:50.000Z</time></trkpt>
      <trkpt lat="40.73892" lon="-73.959954"><ele>3</ele><time>2026-07-29T00:35:51.000Z</time></trkpt>
      <trkpt lat="40.738906" lon="-73.959958"><ele>3</ele><time>2026-07-29T00:35:52.000Z</time></trkpt>
      <trkpt lat="40.738892" lon="-73.959969"><ele>2.8</ele><time>2026-07-29T00:35:53.000Z</time></trkpt>
      <trkpt lat="40.738879" lon="-73.959984"><ele>2.8</ele><time>2026-07-29T00:35:54.000Z</time></trkpt>
      <trkpt lat="40.738865" lon="-73.960001"><ele>2.8</ele><time>2026-07-29T00:35:55.000Z</time></trkpt>
      <trkpt lat="40.738852" lon="-73.960018"><ele>2.8</ele><time>2026-07-29T00:35:56.000Z</time></trkpt>
      <trkpt lat="40.738838" lon="-73.960035"><ele>2.8</ele><time>2026-07-29T00:35:57.000Z</time></trkpt>
      <trkpt lat="40.738823" lon="-73.960051"><ele>2.6</ele><time>2026-07-29T00:35:58.000Z</time></trkpt>
      <trkpt lat="40.738806" lon="-73.960065"><ele>2.6</ele><time>2026-07-29T00:35:59.000Z</time></trkpt>
      <trkpt lat="40.738787" lon="-73.960078"><ele>2.6</ele><time>2026-07-29T00:36:00.000Z</time></trkpt>
      <trkpt lat="40.738768" lon="-73.96009"><ele>2.6</ele><time>2026-07-29T00:36:01.000Z</time></trkpt>
      <trkpt lat="40.738749" lon="-73.960101"><ele>2.6</ele><time>2026-07-29T00:36:02.000Z</time></trkpt>
      <trkpt lat="40.73873" lon="-73.960112"><ele>2.6</ele><time>2026-07-29T00:36:03.000Z</time></trkpt>
      <trkpt lat="40.738712" lon="-73.960123"><ele>2.6</ele><time>2026-07-29T00:36:04.000Z</time></trkpt>
      <trkpt lat="40.738694" lon="-73.960133"><ele>2.6</ele><time>2026-07-29T00:36:05.000Z</time></trkpt>
      <trkpt lat="40.738676" lon="-73.960144"><ele>2.6</ele><time>2026-07-29T00:36:06.000Z</time></trkpt>
      <trkpt lat="40.738657" lon="-73.960154"><ele>2.6</ele><time>2026-07-29T00:36:07.000Z</time></trkpt>
      <trkpt lat="40.738637" lon="-73.960165"><ele>2.6</ele><time>2026-07-29T00:36:08.000Z</time></trkpt>
      <trkpt lat="40.738617" lon="-73.960175"><ele>2.6</ele><time>2026-07-29T00:36:09.000Z</time></trkpt>
      <trkpt lat="40.738598" lon="-73.960184"><ele>2.6</ele><time>2026-07-29T00:36:10.000Z</time></trkpt>
      <trkpt lat="40.738581" lon="-73.960192"><ele>2.6</ele><time>2026-07-29T00:36:11.000Z</time></trkpt>
      <trkpt lat="40.738564" lon="-73.9602"><ele>2.6</ele><time>2026-07-29T00:36:12.000Z</time></trkpt>
      <trkpt lat="40.738548" lon="-73.960207"><ele>2.6</ele><time>2026-07-29T00:36:13.000Z</time></trkpt>
      <trkpt lat="40.738531" lon="-73.960214"><ele>2.8</ele><time>2026-07-29T00:36:14.000Z</time></trkpt>
      <trkpt lat="40.738513" lon="-73.960221"><ele>2.8</ele><time>2026-07-29T00:36:15.000Z</time></trkpt>
      <trkpt lat="40.738495" lon="-73.960229"><ele>2.8</ele><time>2026-07-29T00:36:16.000Z</time></trkpt>
      <trkpt lat="40.738476" lon="-73.960236"><ele>2.8</ele><time>2026-07-29T00:36:17.000Z</time></trkpt>
      <trkpt lat="40.738458" lon="-73.960244"><ele>2.8</ele><time>2026-07-29T00:36:18.000Z</time></trkpt>
      <trkpt lat="40.738441" lon="-73.960253"><ele>2.8</ele><time>2026-07-29T00:36:19.000Z</time></trkpt>
      <trkpt lat="40.738426" lon="-73.960263"><ele>2.8</ele><time>2026-07-29T00:36:20.000Z</time></trkpt>
      <trkpt lat="40.738414" lon="-73.96028"><ele>2.8</ele><time>2026-07-29T00:36:21.000Z</time></trkpt>
      <trkpt lat="40.738405" lon="-73.9603"><ele>2.8</ele><time>2026-07-29T00:36:22.000Z</time></trkpt>
      <trkpt lat="40.738397" lon="-73.960323"><ele>2.8</ele><time>2026-07-29T00:36:23.000Z</time></trkpt>
      <trkpt lat="40.738389" lon="-73.960347"><ele>2.8</ele><time>2026-07-29T00:36:24.000Z</time></trkpt>
      <trkpt lat="40.738382" lon="-73.960371"><ele>2.8</ele><time>2026-07-29T00:36:25.000Z</time></trkpt>
      <trkpt lat="40.738374" lon="-73.960395"><ele>2.8</ele><time>2026-07-29T00:36:26.000Z</time></trkpt>
      <trkpt lat="40.738366" lon="-73.960418"><ele>2.8</ele><time>2026-07-29T00:36:27.000Z</time></trkpt>
      <trkpt lat="40.738358" lon="-73.960441"><ele>2.8</ele><time>2026-07-29T00:36:28.000Z</time></trkpt>
      <trkpt lat="40.738349" lon="-73.960464"><ele>2.8</ele><time>2026-07-29T00:36:29.000Z</time></trkpt>
      <trkpt lat="40.73834" lon="-73.960487"><ele>2.8</ele><time>2026-07-29T00:36:30.000Z</time></trkpt>
      <trkpt lat="40.738331" lon="-73.960509"><ele>2.8</ele><time>2026-07-29T00:36:31.000Z</time></trkpt>
      <trkpt lat="40.738321" lon="-73.960531"><ele>2.8</ele><time>2026-07-29T00:36:32.000Z</time></trkpt>
      <trkpt lat="40.738311" lon="-73.960553"><ele>2.8</ele><time>2026-07-29T00:36:33.000Z</time></trkpt>
      <trkpt lat="40.738301" lon="-73.960574"><ele>2.8</ele><time>2026-07-29T00:36:34.000Z</time></trkpt>
      <trkpt lat="40.738291" lon="-73.960595"><ele>2.8</ele><time>2026-07-29T00:36:35.000Z</time></trkpt>
      <trkpt lat="40.738282" lon="-73.960617"><ele>2.8</ele><time>2026-07-29T00:36:36.000Z</time></trkpt>
      <trkpt lat="40.738273" lon="-73.960639"><ele>2.8</ele><time>2026-07-29T00:36:37.000Z</time></trkpt>
      <trkpt lat="40.738265" lon="-73.960662"><ele>2.8</ele><time>2026-07-29T00:36:38.000Z</time></trkpt>
      <trkpt lat="40.738258" lon="-73.960686"><ele>2.8</ele><time>2026-07-29T00:36:39.000Z</time></trkpt>
      <trkpt lat="40.738252" lon="-73.960709"><ele>2.8</ele><time>2026-07-29T00:36:40.000Z</time></trkpt>
      <trkpt lat="40.738247" lon="-73.960733"><ele>2.8</ele><time>2026-07-29T00:36:41.000Z</time></trkpt>
      <trkpt lat="40.738243" lon="-73.960757"><ele>2.8</ele><time>2026-07-29T00:36:42.000Z</time></trkpt>
      <trkpt lat="40.738239" lon="-73.960783"><ele>2.8</ele><time>2026-07-29T00:36:43.000Z</time></trkpt>
      <trkpt lat="40.738236" lon="-73.960809"><ele>2.8</ele><time>2026-07-29T00:36:44.000Z</time></trkpt>
      <trkpt lat="40.738234" lon="-73.960835"><ele>2.8</ele><time>2026-07-29T00:36:45.000Z</time></trkpt>
      <trkpt lat="40.738233" lon="-73.96086"><ele>2.6</ele><time>2026-07-29T00:36:46.000Z</time></trkpt>
      <trkpt lat="40.738232" lon="-73.960885"><ele>2.6</ele><time>2026-07-29T00:36:47.000Z</time></trkpt>
      <trkpt lat="40.738232" lon="-73.96091"><ele>2.6</ele><time>2026-07-29T00:36:48.000Z</time></trkpt>
      <trkpt lat="40.738232" lon="-73.960935"><ele>2.6</ele><time>2026-07-29T00:36:49.000Z</time></trkpt>
      <trkpt lat="40.738233" lon="-73.96096"><ele>2.6</ele><time>2026-07-29T00:36:50.000Z</time></trkpt>
      <trkpt lat="40.738235" lon="-73.960985"><ele>2.6</ele><time>2026-07-29T00:36:51.000Z</time></trkpt>
      <trkpt lat="40.738237" lon="-73.961011"><ele>2.6</ele><time>2026-07-29T00:36:52.000Z</time></trkpt>
      <trkpt lat="40.738239" lon="-73.961036"><ele>2.6</ele><time>2026-07-29T00:36:53.000Z</time></trkpt>
      <trkpt lat="40.738241" lon="-73.961062"><ele>2.6</ele><time>2026-07-29T00:36:54.000Z</time></trkpt>
      <trkpt lat="40.738243" lon="-73.961087"><ele>2.6</ele><time>2026-07-29T00:36:55.000Z</time></trkpt>
      <trkpt lat="40.738246" lon="-73.961112"><ele>2.6</ele><time>2026-07-29T00:36:56.000Z</time></trkpt>
      <trkpt lat="40.738249" lon="-73.961136"><ele>2.6</ele><time>2026-07-29T00:36:57.000Z</time></trkpt>
      <trkpt lat="40.738252" lon="-73.96116"><ele>2.6</ele><time>2026-07-29T00:36:58.000Z</time></trkpt>
      <trkpt lat="40.738255" lon="-73.961183"><ele>2.6</ele><time>2026-07-29T00:36:59.000Z</time></trkpt>
      <trkpt lat="40.738258" lon="-73.961205"><ele>2.6</ele><time>2026-07-29T00:37:00.000Z</time></trkpt>
      <trkpt lat="40.738261" lon="-73.961226"><ele>2.6</ele><time>2026-07-29T00:37:01.000Z</time></trkpt>
      <trkpt lat="40.738264" lon="-73.961245"><ele>2.6</ele><time>2026-07-29T00:37:02.000Z</time></trkpt>
      <trkpt lat="40.738267" lon="-73.961263"><ele>2.6</ele><time>2026-07-29T00:37:03.000Z</time></trkpt>
      <trkpt lat="40.738271" lon="-73.961282"><ele>2.6</ele><time>2026-07-29T00:37:04.000Z</time></trkpt>
      <trkpt lat="40.738275" lon="-73.961301"><ele>2.6</ele><time>2026-07-29T00:37:05.000Z</time></trkpt>
      <trkpt lat="40.738279" lon="-73.96132"><ele>2.6</ele><time>2026-07-29T00:37:06.000Z</time></trkpt>
      <trkpt lat="40.738284" lon="-73.961338"><ele>2.6</ele><time>2026-07-29T00:37:07.000Z</time></trkpt>
      <trkpt lat="40.738288" lon="-73.961354"><ele>2.6</ele><time>2026-07-29T00:37:08.000Z</time></trkpt>
      <trkpt lat="40.738291" lon="-73.961365"><ele>2.6</ele><time>2026-07-29T00:37:09.000Z</time></trkpt>
      <trkpt lat="40.738291" lon="-73.961369"><ele>2.6</ele><time>2026-07-29T00:37:10.000Z</time></trkpt>
      <trkpt lat="40.738291" lon="-73.961367"><ele>2.6</ele><time>2026-07-29T00:37:11.000Z</time></trkpt>
      <trkpt lat="40.73829" lon="-73.961363"><ele>2.6</ele><time>2026-07-29T00:37:12.000Z</time></trkpt>
      <trkpt lat="40.738288" lon="-73.96135"><ele>2.6</ele><time>2026-07-29T00:37:13.000Z</time></trkpt>
      <trkpt lat="40.738283" lon="-73.961325"><ele>2.6</ele><time>2026-07-29T00:37:14.000Z</time></trkpt>
      <trkpt lat="40.738278" lon="-73.961297"><ele>2.6</ele><time>2026-07-29T00:37:15.000Z</time></trkpt>
      <trkpt lat="40.738273" lon="-73.961268"><ele>2.6</ele><time>2026-07-29T00:37:16.000Z</time></trkpt>
      <trkpt lat="40.738268" lon="-73.961237"><ele>2.6</ele><time>2026-07-29T00:37:17.000Z</time></trkpt>
      <trkpt lat="40.738264" lon="-73.961207"><ele>2.6</ele><time>2026-07-29T00:37:18.000Z</time></trkpt>
      <trkpt lat="40.738259" lon="-73.961177"><ele>2.6</ele><time>2026-07-29T00:37:19.000Z</time></trkpt>
      <trkpt lat="40.738256" lon="-73.961149"><ele>2.6</ele><time>2026-07-29T00:37:20.000Z</time></trkpt>
      <trkpt lat="40.738253" lon="-73.961124"><ele>2.6</ele><time>2026-07-29T00:37:21.000Z</time></trkpt>
      <trkpt lat="40.738251" lon="-73.9611"><ele>2.6</ele><time>2026-07-29T00:37:22.000Z</time></trkpt>
      <trkpt lat="40.738249" lon="-73.961074"><ele>2.4</ele><time>2026-07-29T00:37:23.000Z</time></trkpt>
      <trkpt lat="40.738246" lon="-73.961045"><ele>2.4</ele><time>2026-07-29T00:37:24.000Z</time></trkpt>
      <trkpt lat="40.738244" lon="-73.961017"><ele>2.4</ele><time>2026-07-29T00:37:25.000Z</time></trkpt>
      <trkpt lat="40.738242" lon="-73.960989"><ele>2.4</ele><time>2026-07-29T00:37:26.000Z</time></trkpt>
      <trkpt lat="40.738241" lon="-73.960963"><ele>2.4</ele><time>2026-07-29T00:37:27.000Z</time></trkpt>
      <trkpt lat="40.738238" lon="-73.960937"><ele>2.2</ele><time>2026-07-29T00:37:28.000Z</time></trkpt>
      <trkpt lat="40.738236" lon="-73.960888"><ele>2.2</ele><time>2026-07-29T00:37:29.000Z</time></trkpt>
      <trkpt lat="40.738236" lon="-73.960864"><ele>2.2</ele><time>2026-07-29T00:37:30.000Z</time></trkpt>
      <trkpt lat="40.738237" lon="-73.96084"><ele>2.2</ele><time>2026-07-29T00:37:31.000Z</time></trkpt>
      <trkpt lat="40.738239" lon="-73.960816"><ele>2.2</ele><time>2026-07-29T00:37:32.000Z</time></trkpt>
      <trkpt lat="40.738242" lon="-73.960793"><ele>2.2</ele><time>2026-07-29T00:37:33.000Z</time></trkpt>
      <trkpt lat="40.738245" lon="-73.960772"><ele>2.2</ele><time>2026-07-29T00:37:34.000Z</time></trkpt>
      <trkpt lat="40.738249" lon="-73.960754"><ele>2.2</ele><time>2026-07-29T00:37:35.000Z</time></trkpt>
      <trkpt lat="40.738252" lon="-73.96074"><ele>2.2</ele><time>2026-07-29T00:37:36.000Z</time></trkpt>
      <trkpt lat="40.738253" lon="-73.960731"><ele>2.2</ele><time>2026-07-29T00:37:37.000Z</time></trkpt>
      <trkpt lat="40.738254" lon="-73.960727"><ele>2.2</ele><time>2026-07-29T00:37:38.000Z</time></trkpt>
      <trkpt lat="40.738254" lon="-73.960725"><ele>2.2</ele><time>2026-07-29T00:37:39.000Z</time></trkpt>
      <trkpt lat="40.738253" lon="-73.960725"><ele>2.2</ele><time>2026-07-29T00:37:40.000Z</time></trkpt>
      <trkpt lat="40.738253" lon="-73.960724"><ele>2.2</ele><time>2026-07-29T00:37:41.000Z</time></trkpt>
      <trkpt lat="40.738253" lon="-73.960722"><ele>2.2</ele><time>2026-07-29T00:37:42.000Z</time></trkpt>
      <trkpt lat="40.738253" lon="-73.960719"><ele>2.2</ele><time>2026-07-29T00:37:43.000Z</time></trkpt>
      <trkpt lat="40.738254" lon="-73.960713"><ele>2.2</ele><time>2026-07-29T00:37:44.000Z</time></trkpt>
      <trkpt lat="40.738257" lon="-73.960703"><ele>2.2</ele><time>2026-07-29T00:37:45.000Z</time></trkpt>
      <trkpt lat="40.738262" lon="-73.960684"><ele>2.2</ele><time>2026-07-29T00:37:46.000Z</time></trkpt>
      <trkpt lat="40.73827" lon="-73.96066"><ele>2.2</ele><time>2026-07-29T00:37:47.000Z</time></trkpt>
      <trkpt lat="40.738279" lon="-73.960632"><ele>2.2</ele><time>2026-07-29T00:37:48.000Z</time></trkpt>
      <trkpt lat="40.738288" lon="-73.960606"><ele>2.2</ele><time>2026-07-29T00:37:49.000Z</time></trkpt>
      <trkpt lat="40.738297" lon="-73.960582"><ele>2.2</ele><time>2026-07-29T00:37:50.000Z</time></trkpt>
      <trkpt lat="40.738305" lon="-73.96056"><ele>2.4</ele><time>2026-07-29T00:37:51.000Z</time></trkpt>
      <trkpt lat="40.738314" lon="-73.960538"><ele>2.4</ele><time>2026-07-29T00:37:52.000Z</time></trkpt>
      <trkpt lat="40.738323" lon="-73.960516"><ele>2.4</ele><time>2026-07-29T00:37:53.000Z</time></trkpt>
      <trkpt lat="40.738331" lon="-73.960495"><ele>2.4</ele><time>2026-07-29T00:37:54.000Z</time></trkpt>
      <trkpt lat="40.73834" lon="-73.960475"><ele>2.4</ele><time>2026-07-29T00:37:55.000Z</time></trkpt>
      <trkpt lat="40.73835" lon="-73.960454"><ele>2.4</ele><time>2026-07-29T00:37:56.000Z</time></trkpt>
      <trkpt lat="40.73836" lon="-73.960433"><ele>2.4</ele><time>2026-07-29T00:37:57.000Z</time></trkpt>
      <trkpt lat="40.73837" lon="-73.960413"><ele>2.4</ele><time>2026-07-29T00:37:58.000Z</time></trkpt>
      <trkpt lat="40.73838" lon="-73.960393"><ele>2.4</ele><time>2026-07-29T00:37:59.000Z</time></trkpt>
      <trkpt lat="40.73839" lon="-73.960374"><ele>2.4</ele><time>2026-07-29T00:38:00.000Z</time></trkpt>
      <trkpt lat="40.738402" lon="-73.960355"><ele>2.4</ele><time>2026-07-29T00:38:01.000Z</time></trkpt>
      <trkpt lat="40.738414" lon="-73.960336"><ele>2.4</ele><time>2026-07-29T00:38:02.000Z</time></trkpt>
      <trkpt lat="40.738427" lon="-73.960318"><ele>2.4</ele><time>2026-07-29T00:38:03.000Z</time></trkpt>
      <trkpt lat="40.738441" lon="-73.9603"><ele>2.4</ele><time>2026-07-29T00:38:04.000Z</time></trkpt>
      <trkpt lat="40.738455" lon="-73.960284"><ele>2.4</ele><time>2026-07-29T00:38:05.000Z</time></trkpt>
      <trkpt lat="40.73847" lon="-73.96027"><ele>2.4</ele><time>2026-07-29T00:38:06.000Z</time></trkpt>
      <trkpt lat="40.738485" lon="-73.960259"><ele>2.2</ele><time>2026-07-29T00:38:07.000Z</time></trkpt>
      <trkpt lat="40.738502" lon="-73.960252"><ele>2.2</ele><time>2026-07-29T00:38:08.000Z</time></trkpt>
      <trkpt lat="40.738521" lon="-73.960247"><ele>2.2</ele><time>2026-07-29T00:38:09.000Z</time></trkpt>
      <trkpt lat="40.738542" lon="-73.960244"><ele>2.2</ele><time>2026-07-29T00:38:10.000Z</time></trkpt>
      <trkpt lat="40.738563" lon="-73.960242"><ele>2</ele><time>2026-07-29T00:38:11.000Z</time></trkpt>
      <trkpt lat="40.738583" lon="-73.960241"><ele>2</ele><time>2026-07-29T00:38:12.000Z</time></trkpt>
      <trkpt lat="40.738602" lon="-73.960239"><ele>2</ele><time>2026-07-29T00:38:13.000Z</time></trkpt>
      <trkpt lat="40.738621" lon="-73.960238"><ele>2.2</ele><time>2026-07-29T00:38:14.000Z</time></trkpt>
      <trkpt lat="40.738641" lon="-73.960236"><ele>2.2</ele><time>2026-07-29T00:38:15.000Z</time></trkpt>
      <trkpt lat="40.738658" lon="-73.960233"><ele>2.2</ele><time>2026-07-29T00:38:16.000Z</time></trkpt>
      <trkpt lat="40.738675" lon="-73.960231"><ele>2.4</ele><time>2026-07-29T00:38:17.000Z</time></trkpt>
      <trkpt lat="40.738693" lon="-73.960227"><ele>2.4</ele><time>2026-07-29T00:38:18.000Z</time></trkpt>
      <trkpt lat="40.73871" lon="-73.960222"><ele>2.6</ele><time>2026-07-29T00:38:19.000Z</time></trkpt>
      <trkpt lat="40.738728" lon="-73.960214"><ele>2.6</ele><time>2026-07-29T00:38:20.000Z</time></trkpt>
      <trkpt lat="40.738746" lon="-73.960206"><ele>2.8</ele><time>2026-07-29T00:38:21.000Z</time></trkpt>
      <trkpt lat="40.738764" lon="-73.960199"><ele>2.8</ele><time>2026-07-29T00:38:22.000Z</time></trkpt>
      <trkpt lat="40.738782" lon="-73.960191"><ele>2.8</ele><time>2026-07-29T00:38:23.000Z</time></trkpt>
      <trkpt lat="40.738799" lon="-73.960184"><ele>2.8</ele><time>2026-07-29T00:38:24.000Z</time></trkpt>
      <trkpt lat="40.738816" lon="-73.960177"><ele>2.8</ele><time>2026-07-29T00:38:25.000Z</time></trkpt>
      <trkpt lat="40.738833" lon="-73.96017"><ele>2.8</ele><time>2026-07-29T00:38:26.000Z</time></trkpt>
      <trkpt lat="40.738849" lon="-73.960163"><ele>2.8</ele><time>2026-07-29T00:38:27.000Z</time></trkpt>
      <trkpt lat="40.738864" lon="-73.960154"><ele>2.6</ele><time>2026-07-29T00:38:28.000Z</time></trkpt>
      <trkpt lat="40.738877" lon="-73.960144"><ele>2.6</ele><time>2026-07-29T00:38:29.000Z</time></trkpt>
      <trkpt lat="40.738888" lon="-73.960131"><ele>2.6</ele><time>2026-07-29T00:38:30.000Z</time></trkpt>
      <trkpt lat="40.738896" lon="-73.960112"><ele>2.4</ele><time>2026-07-29T00:38:31.000Z</time></trkpt>
      <trkpt lat="40.738904" lon="-73.96009"><ele>2.4</ele><time>2026-07-29T00:38:32.000Z</time></trkpt>
      <trkpt lat="40.738913" lon="-73.960069"><ele>2.2</ele><time>2026-07-29T00:38:33.000Z</time></trkpt>
      <trkpt lat="40.738914" lon="-73.960045"><ele>4.4</ele><time>2026-07-29T00:38:34.000Z</time></trkpt>
      <trkpt lat="40.738927" lon="-73.96003"><ele>4.4</ele><time>2026-07-29T00:38:35.000Z</time></trkpt>
      <trkpt lat="40.73894" lon="-73.960018"><ele>4.4</ele><time>2026-07-29T00:38:36.000Z</time></trkpt>
      <trkpt lat="40.738953" lon="-73.960016"><ele>4.4</ele><time>2026-07-29T00:38:37.000Z</time></trkpt>
      <trkpt lat="40.738964" lon="-73.960023"><ele>4.4</ele><time>2026-07-29T00:38:38.000Z</time></trkpt>
      <trkpt lat="40.738971" lon="-73.960035"><ele>4.4</ele><time>2026-07-29T00:38:39.000Z</time></trkpt>
      <trkpt lat="40.738974" lon="-73.960052"><ele>4.4</ele><time>2026-07-29T00:38:40.000Z</time></trkpt>
      <trkpt lat="40.738973" lon="-73.960072"><ele>4.4</ele><time>2026-07-29T00:38:41.000Z</time></trkpt>
      <trkpt lat="40.738968" lon="-73.960093"><ele>4.2</ele><time>2026-07-29T00:38:42.000Z</time></trkpt>
      <trkpt lat="40.73896" lon="-73.960115"><ele>4.2</ele><time>2026-07-29T00:38:43.000Z</time></trkpt>
      <trkpt lat="40.738952" lon="-73.960138"><ele>4.2</ele><time>2026-07-29T00:38:44.000Z</time></trkpt>
      <trkpt lat="40.738943" lon="-73.96016"><ele>4.2</ele><time>2026-07-29T00:38:45.000Z</time></trkpt>
      <trkpt lat="40.738933" lon="-73.960182"><ele>4</ele><time>2026-07-29T00:38:46.000Z</time></trkpt>
      <trkpt lat="40.738924" lon="-73.960204"><ele>4</ele><time>2026-07-29T00:38:47.000Z</time></trkpt>
      <trkpt lat="40.738915" lon="-73.960226"><ele>3.8</ele><time>2026-07-29T00:38:48.000Z</time></trkpt>
      <trkpt lat="40.738906" lon="-73.960247"><ele>3.6</ele><time>2026-07-29T00:38:49.000Z</time></trkpt>
      <trkpt lat="40.738897" lon="-73.960268"><ele>3.6</ele><time>2026-07-29T00:38:50.000Z</time></trkpt>
      <trkpt lat="40.738888" lon="-73.960289"><ele>3.4</ele><time>2026-07-29T00:38:51.000Z</time></trkpt>
      <trkpt lat="40.738878" lon="-73.96031"><ele>3</ele><time>2026-07-29T00:38:52.000Z</time></trkpt>
      <trkpt lat="40.738867" lon="-73.960331"><ele>2.8</ele><time>2026-07-29T00:38:53.000Z</time></trkpt>
      <trkpt lat="40.738856" lon="-73.960353"><ele>2.4</ele><time>2026-07-29T00:38:54.000Z</time></trkpt>
      <trkpt lat="40.738845" lon="-73.960374"><ele>2.2</ele><time>2026-07-29T00:38:55.000Z</time></trkpt>
      <trkpt lat="40.738833" lon="-73.960395"><ele>1.8</ele><time>2026-07-29T00:38:56.000Z</time></trkpt>
      <trkpt lat="40.738822" lon="-73.960415"><ele>1.2</ele><time>2026-07-29T00:38:57.000Z</time></trkpt>
      <trkpt lat="40.738812" lon="-73.960436"><ele>0.8</ele><time>2026-07-29T00:38:58.000Z</time></trkpt>
      <trkpt lat="40.738802" lon="-73.960455"><ele>0.2</ele><time>2026-07-29T00:38:59.000Z</time></trkpt>
      <trkpt lat="40.738802" lon="-73.960455"><ele>0.2</ele><time>2026-07-29T00:39:00.000Z</time></trkpt>
    </trkseg>
  </trk>
</gpx>
